location,address,city,county,latitude,longitude,type
Moultrie Playground ,294-314 Broad St,Charleston,"(Charleston County, SC)",32.775526,-79.941928,Gym
West Ashley Library ,45 Windermere Blvd,Charleston,"(Charleston County, SC)",32.776952,-79.975937,Gym
Old Jail and American College ,21 Magazine St,Charleston,"(Charleston County, SC)",32.778654,-79.937213,Gym
SC Chamber Of Commerce ,17 Lockwood Dr,Charleston,"(Charleston County, SC)",32.779154,-79.950924,Gym
Glover - Sottile House ,81 Rutledge Ave,Charleston,"(Charleston County, SC)",32.779843,-79.941966,Gym
Logan Street Park ,1391 Coming St,Charleston,"(Charleston County, SC)",32.779975,-79.936454,Gym
Riviera Theatre ,227 King St,Charleston,"(Charleston County, SC)",32.780613,-79.933375,Gym
City Market ,73 N Market St,Charleston,"(Charleston County, SC)",32.780739,-79.931446,Gym
Mary Shrine ,694 Savannah Hwy,Charleston,"(Charleston County, SC)",32.781555,-79.982208,Gym
Grace Church ,98 Wentworth St,Charleston,"(Charleston County, SC)",32.781557,-79.936574,Gym
Blessed Sacrament Catholic Church ,694-698 US-17,Charleston,"(Charleston County, SC)",32.781785,-79.983174,Gym
Groovy Elephant ,835 Savannah Hwy,Charleston,"(Charleston County, SC)",32.781855,-79.986921,Gym
Coburg Cow ,Coburg Rd,Charleston,"(Charleston County, SC)",32.78241,-79.988813,Gym
Courtyard Fountain ,33 Lockwood Dr,Charleston,"(Charleston County, SC)",32.7825,-79.955919,Gym
Charleston Fire Department Memorial ,46 Wentworth St,Charleston,"(Charleston County, SC)",32.783459,-79.931876,Gym
Pi Kappa Phi Centennial Memorial Bell Tower ,69 Coming St,Charleston,"(Charleston County, SC)",32.783499,-79.93924,Gym
MUSC: Sesquicentennial Monument ,169 Ashley Ave,Charleston,"(Charleston County, SC)",32.785306,-79.947098,Gym
MUSC's Porcher Medicinal Garden ,98 Jonathan Lucas St,Charleston,"(Charleston County, SC)",32.785344,-79.948352,Gym
Green Energy Power Glory Mural ,201 Calhoun St,Charleston,"(Charleston County, SC)",32.7854,-79.937095,Gym
Fitness Park ,74 President St,Charleston,"(Charleston County, SC)",32.786051,-79.949608,Gym
Hospital Strike of 1969 ,171-179 Ashley Ave,Charleston,"(Charleston County, SC)",32.786195,-79.947107,Gym
Holocaust Memorial ,132 Calhoun St,Charleston,"(Charleston County, SC)",32.786585,-79.935023,Gym
Marion Square ,329 Meeting St,Charleston,"(Charleston County, SC)",32.786652,-79.9357095,Trainer Spot
Desert Storm/Shield Flags ,18-34 Vanderhorst St,Charleston,"(Charleston County, SC)",32.786868,-79.939098,Gym
Medical College of South Carolina ,181 Ashley Ave,Charleston,"(Charleston County, SC)",32.786947,-79.947801,Gym
Citadel Square Baptist Church ,320 Meeting St,Charleston,"(Charleston County, SC)",32.78724,-79.934487,Gym
Emanuel AME Church ,110 Calhoun St,Charleston,"(Charleston County, SC)",32.787374,-79.932949,Gym
Original Site of the Citadel ,14 Hutson St,Charleston,"(Charleston County, SC)",32.787414,-79.936083,Gym
Charleston Police Memorial ,Brittlebank Path,Charleston,"(Charleston County, SC)",32.78747,-79.960314,Gym
Beth Shalom Beth Israel Synagogue ,178-182 Rutledge Ave,Charleston,"(Charleston County, SC)",32.787617,-79.945893,Gym
Magnolia Community Garden ,700-736 Magnolia Rd,Charleston,"(Charleston County, SC)",32.787824,-79.993038,Gym
Gadsdenboro Park Bird Sculpture ,311-325 Concord St,Charleston,"(Charleston County, SC)",32.788413,-79.926883,Gym
Hominy Grill ,207 Rutledge Ave,Charleston,"(Charleston County, SC)",32.788856,-79.946807,Gym
The American ,444-446 King St,Charleston,"(Charleston County, SC)",32.788895,-79.938267,Gym
Ackerman Park Dog Run ,Hamilton St,Charleston,"(Charleston County, SC)",32.78906,-79.989852,Gym
Jesus is the Only Fire Escape Mural ,150 President St,Charleston,"(Charleston County, SC)",32.789189,-79.951135,Gym
Joseph P. Riley Stadium ,Brittlebank Path,Charleston,"(Charleston County, SC)",32.789889,-79.960888,Gym
Liberty Square ,Freedom Ln,Charleston,"(Charleston County, SC)",32.790043,-79.92615,Gym
Entrance Murial ,817 St Andrews Blvd,Charleston,"(Charleston County, SC)",32.790368,-79.987098,Gym
Professional Baseball Scouts Hall Of Fame ,360 Fishburne St,Charleston,"(Charleston County, SC)",32.791044,-79.960816,Gym
Forest Park ,780 W Oak Forest Dr,Charleston,"(Charleston County, SC)",32.791151,-79.999294,Gym
South Carolina Aquarium Frog Statue ,340 Concord St,Charleston,"(Charleston County, SC)",32.791202,-79.924942,Gym
Memorial Missionary Baptist Church ,141-153 Alexander St,Charleston,"(Charleston County, SC)",32.791501,-79.932925,Gym
Charlotte Street Park ,1 Charlotte St,Charleston,"(Charleston County, SC)",32.791696,-79.926895,Gym
Karpeles Manuscript Library Museum ,68 Spring St,Charleston,"(Charleston County, SC)",32.791915,-79.943984,Gym
New Christian Missionary Baptist Church ,835 Magnolia Rd,Charleston,"(Charleston County, SC)",32.792189,-79.994839,Gym
Hampstead Cemetery ,48 Reid St,Charleston,"(Charleston County, SC)",32.793399,-79.936081,Gym
Calvary Episcopal Church ,106 Line St,Charleston,"(Charleston County, SC)",32.793877,-79.945986,Gym
Bulldog Statue ,68 Hagood Ave,Charleston,"(Charleston County, SC)",32.794012,-79.957108,Gym
The Alley ,131 Columbus St,Charleston,"(Charleston County, SC)",32.794079,-79.940902,Gym
Victory Church of God in Christ ,57 Drake St,Charleston,"(Charleston County, SC)",32.795034,-79.933936,Gym
Maryville Park And Playground ,1001-1011 Fiall St,Charleston,"(Charleston County, SC)",32.795651,-79.989083,Gym
The Ring- Citadel ,Lee Ave,Charleston,"(Charleston County, SC)",32.796507,-79.959031,Gym
Cigar Factory ,100-116 Drake St,Charleston,"(Charleston County, SC)",32.796881,-79.934704,Gym
Home Team Pig ,1118-1198 Diana St,Charleston,"(Charleston County, SC)",32.797104,-79.998004,Gym
Allan Park ,1-99 N Allan Park,Charleston,"(Charleston County, SC)",32.797213,-79.952824,Gym
Holy Trinity Greek Orthodox Church ,30 Race St,Charleston,"(Charleston County, SC)",32.79787,-79.948244,Gym
Greek Orthodox Church Icon ,20 Race St,Charleston,"(Charleston County, SC)",32.798212,-79.947791,Gym
McDonnell F-4C Phantom II ,Jenkins Ave,Charleston,"(Charleston County, SC)",32.798324,-79.961468,Gym
Mayor Joseph P Riley Jr 30th Mayoral Anniversary Tribute ,Mary Murray Dr,Charleston,"(Charleston County, SC)",32.798401,-79.956941,Gym
Hampton Park Fountain ,Mary Murray Dr,Charleston,"(Charleston County, SC)",32.798912,-79.956929,Gym
Naval Artifacts Display ,???,Charleston,"(Charleston County, SC)",32.799018,-79.960009,Gym
Waterfront Memorial Park ,99 Harry M. Hallman Jr Blvd,Mount Pleasant,"(Charleston County, SC)",32.8019144,-79.9031513,Trainer Spot
South Carolina Tricentenial Commission ,Old Town Plantation Rd,Charleston,"(Charleston County, SC)",32.802155,-79.985753,Gym
Moe's Crosstown Tavern ,714B Rutledge Ave,Charleston,"(Charleston County, SC)",32.802197,-79.953003,Gym
Marsh Cannon ,11 Fort Royal Ave,Charleston,"(Charleston County, SC)",32.802814,-79.988552,Gym
Greater Refuge Temple ,224 Huger St,Charleston,"(Charleston County, SC)",32.803188,-79.942398,Gym
Ashbury St James Church ,754 Rutledge Ave,Charleston,"(Charleston County, SC)",32.803973,-79.953625,Gym
Cassique Of The Kiawah ,Old Town Plantation Rd,Charleston,"(Charleston County, SC)",32.805109,-79.9839,Gym
John L Dart Library ,4 Gadsden Ct,Charleston,"(Charleston County, SC)",32.805128,-79.951334,Gym
Lenevar Park Exercise and Fitness Trail ,14 Edenwood Ct,Charleston,"(Charleston County, SC)",32.805172,-80.004549,Gym
Charlestowne Landing Visitor Center ,Old Town Plantation Rd,Charleston,"(Charleston County, SC)",32.807662,-79.98668,Gym
Henry Woodward plaque ,1500 Old Towne Rd,Charleston,"(Charleston County, SC)",32.808802,-79.985885,Gym
North American Otter ,1500 Old Towne Rd,Charleston,"(Charleston County, SC)",32.808995,-79.984404,Gym
Charlestowne Methodist Church ,1405 Miles Dr,Charleston,"(Charleston County, SC)",32.809113,-79.996276,Gym
Tattooed Moose ,1137 Morrison Dr,Charleston,"(Charleston County, SC)",32.81139,-79.949207,Gym
Calvary Lutheran Church ,1400 Manor Blvd,Charleston,"(Charleston County, SC)",32.81271,-80.001407,Gym
The Knights Chapel ,1662 Ingram Rd,Charleston,"(Charleston County, SC)",32.814745,-79.993344,Gym
Irish Volunteers ,130 N Romney St,Charleston,"(Charleston County, SC)",32.814942,-79.943197,Gym
Confederate Cemetery Chapel ,9 Cunnington Ave,North Charleston,"(Charleston County, SC)",32.814964,-79.947785,Gym
Grayson's Tree of Knowledge ,2111-2141 Heriot St,Charleston,"(Charleston County, SC)",32.815978,-79.952593,Gym
Magnolia Cemetery Memorial Garden ,9 Cunnington Ave,North Charleston,"(Charleston County, SC)",32.816138,-79.944985,Gym
Hindu Temple and Cultural Center ,1740 Jervey Ave,Charleston,"(Charleston County, SC)",32.817386,-80.002812,Gym
The Lions Den Tomb ,Algonquin Rd,Charleston,"(Charleston County, SC)",32.818706,-79.941592,Gym
Northbridge Baptist Church ,1160 Sam Rittenberg Blvd,Charleston,"(Charleston County, SC)",32.818992,-79.993213,Gym
Synagogue Emanu-El ,5 Windsor Dr,Charleston,"(Charleston County, SC)",32.826718,-79.987511,Gym
Cooper River Marina Dog Walk and Park ,1010 Juneau Ave,North Charleston,"(Charleston County, SC)",32.831272,-79.937559,Gym
Sam Rittenberg Boulevard ,SC-7,Charleston,"(Charleston County, SC)",32.83381,-79.986866,Gym
The House of God ,2042 Hampton Ave,North Charleston,"(Charleston County, SC)",32.841397,-79.963299,Gym
Miracle Temple Church ,2504 State Rd S-10-32,North Charleston,"(Charleston County, SC)",32.843002,-79.957642,Gym
Armed Service Memorial Fountain ,Bainbridge Ave,North Charleston,"(Charleston County, SC)",32.845872,-79.941377,Gym
New Hope Missionary Baptist ,2900 Appleton Ave,North Charleston,"(Charleston County, SC)",32.84709,-79.970745,Gym
Salvation and Deliverance ,1916 Burton Ln,North Charleston,"(Charleston County, SC)",32.848047,-79.962595,Gym
Sumter Guards Monument ,2165-2199 SC-7,North Charleston,"(Charleston County, SC)",32.853597,-79.977622,Gym
Advent Lutheran Church ,2100-2106 Carver Ave,North Charleston,"(Charleston County, SC)",32.854301,-79.974865,Gym
Unity Church Of Charleston ,2535 Leeds Ave,Charleston,"(Charleston County, SC)",32.854802,-80.010903,Gym
Wind Turbine Blade ,1256 Supply St,North Charleston,"(Charleston County, SC)",32.855054,-79.959232,Gym
Shiloh African Methodist Episcipal Church ,3570 Meeting St,North Charleston,"(Charleston County, SC)",32.855304,-79.983486,Gym
Pollo Tropical Mural ,Olivia Dr,North Charleston,"(Charleston County, SC)",32.856532,-80.043795,Gym
Our Future ,1910 Reynolds Ave,North Charleston,"(Charleston County, SC)",32.857057,-79.971114,Gym
Eternal Father of the Sea ,Ave B S,North Charleston,"(Charleston County, SC)",32.859188,-79.965188,Gym
Greater Joy Tabernacle ,3775 Spruill Ave,North Charleston,"(Charleston County, SC)",32.862128,-79.978952,Gym
North Charleston Performing Arts Center Sign ,3401 Firestone Rd,North Charleston,"(Charleston County, SC)",32.864207,-80.021164,Gym
Coffee Production Mural ,5060 International Blvd,North Charleston,"(Charleston County, SC)",32.867405,-80.017009,Gym
First Baptist Church of North Charleston ,4219 Rivers Ave,North Charleston,"(Charleston County, SC)",32.869623,-79.992875,Gym
Coast Brewing Company ,191 2nd St N,North Charleston,"(Charleston County, SC)",32.873381,-79.971845,Gym
Starbucks ,4840 Tanger Outlet Blvd,North Charleston,"(Charleston County, SC)",32.87343482,-80.01849616,Gym
Tangers Fountain ,4840 Tanger Outlet Blvd,North Charleston,"(Charleston County, SC)",32.873471,-80.017917,Gym
Tanger Center Veteran's Flag ,4840 Tanger Outlet Blvd,North Charleston,"(Charleston County, SC)",32.873642,-80.017384,Gym
Charleston Train Station ,4601-4675 Gaynor St,North Charleston,"(Charleston County, SC)",32.874831,-79.998091,Gym
North Charleston City Hall Art ,2500 City Hall Ln,North Charleston,"(Charleston County, SC)",32.876064,-80.011888,Gym
Regal Charles Towne Square Stadium 18 ,2403 Mall Dr,North Charleston,"(Charleston County, SC)",32.877491,-80.010361,Gym
Pump House Park ,4600-4620 Oakwood Ave,North Charleston,"(Charleston County, SC)",32.877613,-79.977798,Gym
Ducks at the Pond ,1150 Buist Ave,North Charleston,"(Charleston County, SC)",32.878556,-79.983001,Gym
Quarterman Park ,1150 Buist Ave,North Charleston,"(Charleston County, SC)",32.878737,-79.982033,Gym
El-Shaddai Missionary Baptist Church International ,4700-4708 State Rd S-10-39,North Charleston,"(Charleston County, SC)",32.878942,-79.987898,Gym
Park Circle Presbyterian Church ,4701 Park Pl W,North Charleston,"(Charleston County, SC)",32.87999,-79.987457,Gym
Lowcountry Map Mural ,1061 E Montague Ave,North Charleston,"(Charleston County, SC)",32.881279,-79.976152,Gym
Park Circle ,4800 Park Cir,North Charleston,"(Charleston County, SC)",32.881451,-79.983972,Gym
St. Thomas Church Mary Statue ,6650 Dorchester Rd,North Charleston,"(Charleston County, SC)",32.881966,-80.06463,Gym
Chateau Street Mural ,4845 Chateau Ave,North Charleston,"(Charleston County, SC)",32.88249,-79.976947,Gym
CHS Gazebo ,5500 International Blvd,North Charleston,"(Charleston County, SC)",32.884571,-80.036919,Gym
Armory Community Center ,5000 Lackawanna Blvd,North Charleston,"(Charleston County, SC)",32.884807,-79.993107,Gym
Landscape Reflection ,5500 International Blvd,North Charleston,"(Charleston County, SC)",32.884985,-80.035808,Gym
Pittman Street Baptist Church ,5101-5105 Pittman St,North Charleston,"(Charleston County, SC)",32.889695,-79.980766,Gym
Iglesia De Jesus Christo ,2070 Harley St,North Charleston,"(Charleston County, SC)",32.892354,-80.012175,Gym
Air Force Water Tower ,1792-1798 James Ave,North Charleston,"(Charleston County, SC)",32.893778,-80.054473,Gym
Naval Weapons Station Charleston ,S Bates St,North Charleston,"(Charleston County, SC)",32.897528,-80.051512,Gym
North Charleston Fire Departme ,2014 Remount Rd,North Charleston,"(Charleston County, SC)",32.899569,-80.014887,Gym
New Vision AME Zion Church ,1338 Fretwell St,North Charleston,"(Charleston County, SC)",32.900154,-79.995079,Gym
French Botanical Garden ,2398 Aviation Ave,North Charleston,"(Charleston County, SC)",32.900731,-80.029746,Gym
The Revelation of Christ Church ,147 1465 Remount Rd Access Rd,North Charleston,"(Charleston County, SC)",32.900749,-80.000852,Gym
Rehoboth Ministries International Church ,5638 N Rhett Ave,North Charleston,"(Charleston County, SC)",32.90133,-79.985358,Gym
Voice Of The LORD International Church ,1270 Yeamans Hall Rd,Hanahan,"(Berkeley County, SC)",32.901515,-80.010684,Gym
MWV-Kapstone Park ,Clubhouse Rd,North Charleston,"(Charleston County, SC)",32.903185,-79.989391,Gym
Bessinger-Kelly Memorial Park ,1124 Yeamans Hall Rd,Hanahan,"(Berkeley County, SC)",32.908862,-80.002906,Gym
Stardust Rollerskating Center ,2045 Spaulding Dr,North Charleston,"(Charleston County, SC)",32.909143,-80.020512,Gym
Christ's Sanctified Holy Church ,1235 Belvedere Dr,Hanahan,"(Berkeley County, SC)",32.910143,-80.008505,Gym
Tree of Life Ministries ,6363-6393 US-78,Charleston,"(Charleston County, SC)",32.911835,-80.025177,Gym
C 141b ,Arthur Dr,North Charleston,"(Charleston County, SC)",32.913271,-80.054702,Gym
Hanahan Library ,1216 Old Murray Dr,Hanahan,"(Berkeley County, SC)",32.918685,-80.020539,Gym
Midland Park United Methodist Church ,2351 State Rd S-10-1187,North Charleston,"(Charleston County, SC)",32.920668,-80.038702,Gym
The Keeper of Time ,7000 Rivers Ave,North Charleston,"(Charleston County, SC)",32.926287,-80.03143,Gym
Trident Technical College Library ,500 College Dr,North Charleston,"(Charleston County, SC)",32.926663,-80.030385,Gym
Trident Technical College Meditation Garden ,College Dr,North Charleston,"(Charleston County, SC)",32.927882,-80.031607,Gym
 Huntington Beach State Park,16148 Ocean Hwy,Murrells Inlet,"(Georgetown County, SC)",33.507189,-79.065767,Nest
 Brookgreen Gardens,1931 Brookgreen Garden Dr,Murrells Inlet,"(Georgetown County, SC)",33.518132,-79.096482,Nest
Murrells Inlet MarshWalk,Waterfront,Murrells Inlet,"(Georgetown County, SC)",33.549918,-79.043033,Habitat
Myrtle Beach State Park,4401 South Kings Highway,Myrtle Beach,"(Horry County, SC)",33.647686,-78.940353,Habitat
Valor Park ,Valor Park,Myrtle Beach,"(Horry County, SC)",33.6678058,-78.9399615,Trainer Spot
The Market Common,4017 Deville St.,Myrtle Beach,"(Horry County, SC)",33.670841,-78.939343,Habitat
Myrtle Beach Boardwalk Entertainment District,Between Second Avenue North and 15th Avenue North,Myrtle Beach,"(Horry County, SC)",33.696793,-78.875423,Habitat
Broadway at the Beach,1325 Celebrity Circle,Myrtle Beach,"(Horry County, SC)",33.714958,-78.884539,Habitat
Brookgreen Gardens,1931 Brookgreen Drive,Murrells Inlet,"(Georgetown County, SC)",33.726873,-78.89248,Habitat
Barefoot Landing,4898 Hwy 17 South,North Myrtle Beach,"(Horry County, SC)",33.842044,-78.662765,Habitat
North Myrtle Beach Park & Sports Complex,150 Citizens Circle,Little River,"(Horry County, SC)",33.87853,-78.63938,Habitat
 Gervais Street Bridge,1 Gervais Street,West Columbia,"(Lexington County, SC)",33.9957098,-81.0514818,Nest
Key's Fountain ,4129 Hearthside Dr,Wilmington,"(New Hanover County, NC)",34.173837,-77.903553,Gym
Halyburton Park ,3907-3909 S 17th St,Wilmington,"(New Hanover County, NC)",34.175651,-77.905444,Gym
The River of Life Worship Center ,3504 Carolina Beach Rd,Wilmington,"(New Hanover County, NC)",34.183386,-77.93024,Gym
Wilmington Fire Department ,3230 S College Rd,Wilmington,"(New Hanover County, NC)",34.187587,-77.891066,Gym
Pine Valley Country Club ,500 Pine Valley Dr,Wilmington,"(New Hanover County, NC)",34.18838,-77.897583,Gym
North Carolina Shipbuilding Co. ,501-517 US-117,Wilmington,"(New Hanover County, NC)",34.191705,-77.934226,Gym
Apostolic Tabernacle ,724 Wonder Way,Wilmington,"(New Hanover County, NC)",34.19444,-77.931996,Gym
City of Wilmington Water Tower ,2555 S 17th St,Wilmington,"(New Hanover County, NC)",34.195049,-77.919574,Gym
Sculpture at Greenlawn ,2540-2598 S 17th St,Wilmington,"(New Hanover County, NC)",34.195874,-77.921888,Gym
Pine Valley Baptist Church ,2-12 Partridge Rd,Wilmington,"(New Hanover County, NC)",34.197406,-77.897056,Gym
Hoggard Spirit Rock ,4305 Shipyard Blvd,Wilmington,"(New Hanover County, NC)",34.198743,-77.892906,Gym
Temple of Praise ,1637 Wellington Ave,Wilmington,"(New Hanover County, NC)",34.198876,-77.92342,Gym
Hugh MacRae Park Athletic Complex ,4501-4543 US-117,Wilmington,"(New Hanover County, NC)",34.200295,-77.889721,Gym
Hugh MacRae Fountain ,Freedom Way,Wilmington,"(New Hanover County, NC)",34.204551,-77.886037,Gym
New Hanover County War Memorial ,Freedom Way,Wilmington,"(New Hanover County, NC)",34.205325,-77.88645,Gym
Nhrmc Fountain ,2135 S 17th St,Wilmington,"(New Hanover County, NC)",34.205349,-77.922217,Gym
Jellybeans ,5214 Oleander Dr,Wilmington,"(New Hanover County, NC)",34.20755,-77.865234,Gym
Jungle Rapids ,5314 US-76,Wilmington,"(New Hanover County, NC)",34.207801,-77.863192,Gym
Hugh MacRae Park 50th Anniversary Plaque ,Hugh McRae Park Rd,Wilmington,"(New Hanover County, NC)",34.208282,-77.882707,Gym
The Stadium ,5560 US-76,Wilmington,"(New Hanover County, NC)",34.208525,-77.853119,Gym
First Baptist Church Fountain ,1901 Independence Blvd,Wilmington,"(New Hanover County, NC)",34.208604,-77.908376,Gym
Oleander United Methodist Church ,5810 Oleander Dr,Wilmington,"(New Hanover County, NC)",34.209111,-77.845295,Gym
Edwin A. Anderson ,4800-4898 US-76,Wilmington,"(New Hanover County, NC)",34.209692,-77.881638,Gym
Fragrance Garden Fountain ,1901-1999 Amphitheater Dr,Wilmington,"(New Hanover County, NC)",34.209724,-77.938191,Gym
Rotary Garden ,1900-1960 Amphitheater Dr,Wilmington,"(New Hanover County, NC)",34.209734,-77.939795,Gym
Stone Fountain ,6236-6298 River to the Sea Bikeway,Wilmington,"(New Hanover County, NC)",34.210317,-77.836223,Gym
Sea Gate Baptist Church ,123 Bagley Ave,Wilmington,"(New Hanover County, NC)",34.210518,-77.838651,Gym
Arboretum Fountain ,6206 Oleander Dr,Wilmington,"(New Hanover County, NC)",34.21054,-77.835584,Gym
Treasure House ,105 Hawthorne Dr,Wilmington,"(New Hanover County, NC)",34.210714,-77.86353,Gym
Rock Sculpture at New Hanover County Arboretum ,6206 Oleander Dr,Wilmington,"(New Hanover County, NC)",34.210898,-77.835245,Gym
Painted Bike Rack ,6300-6308 US-76,Wilmington,"(New Hanover County, NC)",34.210968,-77.835633,Gym
Mellow Mushroom ,4307 Oleander Dr,Wilmington,"(New Hanover County, NC)",34.211112,-77.889779,Gym
Bible Baptist Church ,5419 Park Ave,Wilmington,"(New Hanover County, NC)",34.21115,-77.858305,Gym
Wesley Memorial United Methodist Church ,1401 S College Rd,Wilmington,"(New Hanover County, NC)",34.211839,-77.886329,Gym
Pirate Ship ,107-111 Hinton Ave,Wilmington,"(New Hanover County, NC)",34.21209,-77.848867,Gym
Machine Man ,4000-4002 US-76,Wilmington,"(New Hanover County, NC)",34.212497,-77.897203,Gym
Our Crepes And More Metal Art ,3810 Oleander Dr,Wilmington,"(New Hanover County, NC)",34.213763,-77.900081,Gym
Gateway Church ,201-299 N MacMillan Ave,Wilmington,"(New Hanover County, NC)",34.213886,-77.881743,Gym
Lake Forest Baptist Church ,1626-1698 Lake Branch Dr,Wilmington,"(New Hanover County, NC)",34.214704,-77.93593,Gym
Belk Battle Ship Mural ,3500 Independence Blvd,Wilmington,"(New Hanover County, NC)",34.215574,-77.907257,Gym
Warriors of Christ Church ,1054 US-117,Wilmington,"(New Hanover County, NC)",34.215584,-77.886722,Gym
Kingoff's Clock ,3501 Oleander Dr,Wilmington,"(New Hanover County, NC)",34.217252,-77.903992,Gym
The Pig ,918-920 S Kerr Ave,Wilmington,"(New Hanover County, NC)",34.217895,-77.886996,Gym
WFD Memorial ,Cross City Trail,Wilmington,"(New Hanover County, NC)",34.219843,-77.905131,Gym
Heaven Sent Tabernacle of Prayer ,3421 Wrightsville Ave,Wilmington,"(New Hanover County, NC)",34.222003,-77.900217,Gym
Crossway Chapel ,4507 Fountain Dr,Wilmington,"(New Hanover County, NC)",34.222655,-77.883379,Gym
Student Recreation Center ,Walton Dr,Wilmington,"(New Hanover County, NC)",34.222986,-77.86722,Gym
Manet Mansuraque ,Chancellor's Walk,Wilmington,"(New Hanover County, NC)",34.222992,-77.865281,Gym
Dr. Wells Memorial ,4941 Riegel Rd,Wilmington,"(New Hanover County, NC)",34.223161,-77.870763,Gym
First Christian Church ,2101-2137 Mimosa Pl,Wilmington,"(New Hanover County, NC)",34.224326,-77.920188,Gym
Okami Silo ,614 NC-132,Wilmington,"(New Hanover County, NC)",34.225146,-77.881569,Gym
Khan's Garden ,Chancellor's Walk,Wilmington,"(New Hanover County, NC)",34.225262,-77.868589,Gym
Teal Fountain ,601 South College Road,Wilmington,"(New Hanover County, NC)",34.225292,-77.874275,Gym
Robert Frost Quote ,Seahawk Landing Dr,Wilmington,"(New Hanover County, NC)",34.225493,-77.861627,Gym
St. Matthews Lutheran ,612 S College Rd,Wilmington,"(New Hanover County, NC)",34.225564,-77.880942,Gym
Cicero Quote ,Walton Dr,Wilmington,"(New Hanover County, NC)",34.22603,-77.86379,Gym
Soaring Sea Hawk ,Chancellor's Walk,Wilmington,"(New Hanover County, NC)",34.226422,-77.871965,Gym
Alderman Hall ,Wagoner Dr,Wilmington,"(New Hanover County, NC)",34.226678,-77.877122,Gym
Mothers Neighborhood Park ,3201-3299 Farmers Ave,Wilmington,"(New Hanover County, NC)",34.226688,-77.902794,Gym
Soaring To Greatness ,Wagoner Dr,Wilmington,"(New Hanover County, NC)",34.226799,-77.878081,Gym
Bossy ,2210 Wrightsville Ave,Wilmington,"(New Hanover County, NC)",34.227092,-77.918188,Gym
UNCW Millennium Clock Tower ,University of North Carolina At Wilmington,Wilmington,"(New Hanover County, NC)",34.227194,-77.873123,Gym
William Madison Randall Library ,University of North Carolina At Wilmington,Wilmington,"(New Hanover County, NC)",34.227489,-77.873674,Gym
Yellow Red Sculpture ,Randall Dr,Wilmington,"(New Hanover County, NC)",34.228633,-77.867795,Gym
Community Hospital 1920-1967 ,521 S 11th St,Wilmington,"(New Hanover County, NC)",34.228961,-77.934492,Gym
Glad Tidings Community Church ,3110 Randall Pkwy,Wilmington,"(New Hanover County, NC)",34.229034,-77.904215,Gym
The Juggling Gypsy ,1612 Castle St,Wilmington,"(New Hanover County, NC)",34.229264,-77.927441,Gym
Anne Mccrary Park ,Cross City Trail,Wilmington,"(New Hanover County, NC)",34.230484,-77.892379,Gym
SPL Joce Carrasquillo Memorial ,5003 Randall Pkwy,Wilmington,"(New Hanover County, NC)",34.232372,-77.878407,Gym
Anderson Tabernacle Church ,317 S 17th St,Wilmington,"(New Hanover County, NC)",34.232725,-77.926949,Gym
El Cerro Grande Mural ,341 S College Rd,Wilmington,"(New Hanover County, NC)",34.233299,-77.872657,Gym
Statue of St Mark ,1011 Eastwood Rd,Wilmington,"(New Hanover County, NC)",34.237118,-77.845153,Gym
Fountain at Andrews Mortuary ,1613-1617 US-17 BUS,Wilmington,"(New Hanover County, NC)",34.23717,-77.928014,Gym
Froggy Pond ,250 Racine Dr,Wilmington,"(New Hanover County, NC)",34.239032,-77.867156,Gym
Face Carved in a Rock ,101 Wayne Dr,Wilmington,"(New Hanover County, NC)",34.239078,-77.907155,Gym
Clockwork Horse ,211 Racine Dr,Wilmington,"(New Hanover County, NC)",34.240173,-77.864701,Gym
Mattress Headquarters Palm Tree Mural ,3722 Market St,Wilmington,"(New Hanover County, NC)",34.240676,-77.899774,Gym
New Hanover County Government Center ,230 Government Center Dr,Wilmington,"(New Hanover County, NC)",34.241573,-77.867547,Gym
Wilmington First Pentecostal Holiness Church ,2901 Chestnut St,Wilmington,"(New Hanover County, NC)",34.241776,-77.909191,Gym
Kerr Ave Mural ,4618 Market St,Wilmington,"(New Hanover County, NC)",34.242057,-77.888226,Gym
Cross Memorial ,4875 New Centre Dr,Wilmington,"(New Hanover County, NC)",34.243726,-77.878725,Gym
Tortoise Fountain ,222 Old Eastwood Rd,Wilmington,"(New Hanover County, NC)",34.243896,-77.863124,Gym
Wilmington US Post Office ,314 Lennon Dr,Wilmington,"(New Hanover County, NC)",34.249854,-77.875717,Gym
Anderson County Courthouse or Downtown ,100 East Whitner Street,Anderson,"(Anderson County, SC)",34.5034394,-82.6501332,Trainer Spot
 Heritage Park,861 SE Main St,Simpsonville,"(Greenville County, SC)",34.721315,-82.232237,Nest
Heritage Park ,861 SE Main St,Simpsonville,"(Greenville County, SC)",34.7213151,-82.2344256,Trainer Spot
Lakeview Golf Club ,315 Piedmont Golf Course Rd,Greenville,"(Greenville County, SC)",34.731166,-82.4311547,Trainer Spot
Simpsonville City Park ,Park Dr,Simpsonville,"(Greenville County, SC)",34.7400159,-82.2525214,Trainer Spot
 Simpsonville City Park,Academy St,Simpsonville,"(Greenville County, SC)",34.7405511,-82.2523254,Habitat
Southside Park ,417 Baldwin Rd,Simpsonville,"(Greenville County, SC)",34.7443885,-82.3052331,Trainer Spot
Legacy P,200 Ranch Rd W,Greenville,"(Greenville County, SC)",34.744793,-82.3257187,Trainer Spot
 Bonnie Brae Golf Club,1116 Ashmore Bridge Rd,Greenville,"(Greenville County, SC)",34.747103,-82.354293,Nest
Bonnie Brae Golf Club ,1116 Ashmore Bridge Rd,Greenville,"(Greenville County, SC)",34.7471032,-82.3564816,Trainer Spot
Peace Center or Ma,Main St,Greenville,"(Greenville County, SC)",34.7652079,-82.3542653,Trainer Spot
Lake Conestee Park (Trail Path) ,601 Fork Shoals Rd,Mauldin,"(Greenville County, SC)",34.7700466,-82.3514566,Trainer Spot
Sunset Park ,211 Fowler Cir,Mauldin,"(Greenville County, SC)",34.771851,-82.3273587,Trainer Spot
 Sunset Park,132 Trailside Ln,Greenville,"(Greenville County, SC)",34.7721242,-82.3241615,Nest
Lakeside Park ,1500 Piedmont Hwy,Greenville,"(Greenville County, SC)",34.7724199,-82.4311777,Trainer Spot
Wenwood Soccer Complex ,1967 Ridge Rd,Greenville,"(Greenville County, SC)",34.7816926,-82.3419738,Trainer Spot
 Wenwood Soccer Complex,1967 Ridge Rd,Greenville,"(Greenville County, SC)",34.781693,-82.339785,Nest
Spr,Hyde Cir,Mauldin,"(Greenville County, SC)",34.7848233,-82.305658,Trainer Spot
MESA Soccer Complex (Pond) ,1020 Anderson Ridge Rd,Simpsonville,"(Greenville County, SC)",34.812653,-82.1967239,Trainer Spot
 Gower Estates Park,24 Evelyn Ave,Greenville,"(Greenville County, SC)",34.829008,-82.350962,Nest
Legacy Park ,336 Rocky Slope Rd,Greenville,"(Greenville County, SC)",34.8293486,-82.334689,Trainer Spot
Gower Estate Park ,24 Evelyn Ave,Greenville,"(Greenville County, SC)",34.829607,-82.3526897,Trainer Spot
 Gower Park,122 Carolina Ave,Greenville,"(Greenville County, SC)",34.8313686,-82.3526775,Habitat
 Gower Park,9 Evelyn Ave,Greenville,"(Greenville County, SC)",34.831369,-82.350489,Nest
Green Forest Park ,Alameda St,Greenville,"(Greenville County, SC)",34.8349867,-82.3787368,Trainer Spot
 Cleveland Park,Cleveland Park Dr,Greenville,"(Greenville County, SC)",34.8443219,-82.3897504,Habitat
 Cleveland Park,Cleveland Park Dr & East Washington,Greenville,"(Greenville County, SC)",34.844322,-82.387562,Nest
 Cleveland Park,Cleveland Park Dr & East Washington,Greenville,"(Greenville County, SC)",34.844331,-82.387593,Nest
 Falls Park,618 S Main St,Greenville,"(Greenville County, SC)",34.8450993,-82.4029106,Habitat
 Falls Park,601 S Main St,Greenville,"(Greenville County, SC)",34.845108,-82.40072,Nest
Falls Park ,Falls Park Dr,Greenville,"(Greenville County, SC)",34.8463655,-82.4036687,Trainer Spot
Cleveland Park ,Cleveland Park Drive & East Washington,Greenville,"(Greenville County, SC)",34.8495083,-82.3870827,Trainer Spot
Pelham Mill Park ,2770 E Phillips Rd,Greenville,"(Greenville County, SC)",34.8567654,-82.2289375,Trainer Spot
Timmons Park ,121 Oxford St,Greenville,"(Greenville County, SC)",34.8643071,-82.375387,Trainer Spot
Butler Spr,301 Butler Springs Rd,Greenville,"(Greenville County, SC)",34.8691977,-82.3382219,Trainer Spot
 Butler Springs Park,301 Butler Springs Rd,Greenville,"(Greenville County, SC)",34.869198,-82.336033,Nest
 Thornblade Club,115 Antigua Way,Greer,"(Greenville County, SC)",34.8693502,-82.2668765,Habitat
Tyger River Park ,1179 Dillard Rd,Duncan,"(Spartanburg County, SC)",34.8706211,-82.1058229,Trainer Spot
Herdklotz Park ,126 Beverly Rd,Greenville,"(Greenville County, SC)",34.8975971,-82.375516,Trainer Spot
Century Park ,3605 Brushy Creek Rd,Greer,"(Greenville County, SC)",34.9298189,-82.2418606,Trainer Spot
 Century Park,1217 Brushy Creek Rd,Taylors,"(Greenville County, SC)",34.9299628,-82.2422841,Habitat
Paris Mounta,2401 State Park Rd,Travelers Rest,"(Greenville County, SC)",34.9311528,-82.3719455,Trainer Spot
Greer City Park ,301 E Poinsett St,Greer,"(Greenville County, SC)",34.9386308,-82.2257727,Trainer Spot
 Century B Park,446 Pennsylvania Ave,Greer,"(Greenville County, SC)",34.938837,-82.242583,Nest
Rockingham Foreshore,274 West Washington Street,Rockingham,"(Richmond County, NC)",34.9393201,-79.7739457,Trainer Spot
Trailblazer Park ,1235 Trailblazer Drive,Travelers Rest,"(Greenville County, SC)",34.956116,-82.4446567,Trainer Spot
Northside Park ,W Darby Rd,Greenville,"(Greenville County, SC)",34.9593454,-82.3572736,Trainer Spot
Gateway Park ,115 Henderson Dr,Travelers Rest,"(Greenville County, SC)",34.9714775,-82.4436785,Trainer Spot
Market Square Circle,Market Square,Fayetteville,"(Cumberland County, NC)",35.0524836,-78.8784915,Trainer Spot
Unity Chapel at Cliffdale ,1027-1043 71st School Rd,Fayetteville,"(Cumberland County, NC)",35.054418,-79.011752,Gym
Manna Church ,5117 Cliffdale Rd,Fayetteville,"(Cumberland County, NC)",35.058958,-78.961499,Gym
Fayetteville Korean Baptist Church ,504 Cliffdale Ct,Fayetteville,"(Cumberland County, NC)",35.059385,-79.009596,Gym
Fayetteville Water Tower ,NC-1400,Fayetteville,"(Cumberland County, NC)",35.059773,-78.956079,Gym
The Golf Club at Ballantyne,13328 Ballantyne Corporate Pl,Charlotte,"(Mecklenburg County, NC)",35.06039014,-80.84595859,Nest
Zion Korean Methodist Church ,6029-6099 Amstead Ave,Fayetteville,"(Cumberland County, NC)",35.060752,-78.97816,Gym
 North Greenville University,7801 N Tigerville Rd,Tigerville,"(Greenville County, SC)",35.067133,-82.373664,Habitat
Redeeming Love Family Church ,4525-4549 Campground Rd,Fayetteville,"(Cumberland County, NC)",35.067574,-78.968752,Gym
Beer Bottle Chandelier ,115 Glensford Dr,Fayetteville,"(Cumberland County, NC)",35.068344,-78.959796,Gym
Anti-Air Cannon ,Air Defense Loop,Fayetteville,"(Cumberland County, NC)",35.068617,-79.030721,Gym
Giant Spoon at Sweet Frogs ,4191 Sycamore Dairy Rd,Fayetteville,"(Cumberland County, NC)",35.069583,-78.952647,Gym
Mellow Mushroom Soldier ,301 N McPherson Church Rd,Fayetteville,"(Cumberland County, NC)",35.072059,-78.952674,Gym
Starbucks ,565 Cross Creek Mall,Fayetteville,"(Cumberland County, NC)",35.07481371,-78.96236039,Gym
James K Polk Memorial,State Rd 3640,Pineville,"(Mecklenburg County, NC)",35.07805553,-80.88250101,Nest
Embassy Suites Fountain ,4760 Lake Valley Dr,Fayetteville,"(Cumberland County, NC)",35.080375,-78.965326,Gym
McDowell Nature Preserve,McDowell Pkwy,Charlotte,"(Mecklenburg County, NC)",35.10020816,-81.02215805,Habitat
Carmel Country Club,4735 Carmel Rd,Charlotte,"(Mecklenburg County, NC)",35.10052963,-80.81748962,Nest
Union Point Park,210 E Front St,New Bern,"(Craven County, NC)",35.1034694,-77.0359368,Trainer Spot
Carmel Country Club,4735 Carmel Rd,Charlotte,"(Mecklenburg County, NC)",35.10477795,-80.82534313,Nest
Myers Park,2317 Colony Rd,Charlotte,"(Mecklenburg County, NC)",35.17440466,-80.83036423,Nest
Freedom Park ,1751-1799 Princeton Ave,Charlotte,"(Mecklenburg County, NC)",35.18642,-80.843238,Gym
St. Lukes Lutheran Church ,3200 Park Rd,Charlotte,"(Mecklenburg County, NC)",35.186442,-80.85306,Gym
Freedom Park Lakeside,Little Sugar Creek Greenway-C3,Charlotte,"(Mecklenburg County, NC)",35.18850524,-80.84508419,Nest
Diana Fountain Statue ,1850 Queens Rd,Charlotte,"(Mecklenburg County, NC)",35.188552,-80.832624,Gym
Triple Arc 1 ,Burwell Cir,Charlotte,"(Mecklenburg County, NC)",35.18867,-80.831413,Gym
Queens Fountain ,Burwell Cir,Charlotte,"(Mecklenburg County, NC)",35.189105,-80.831991,Gym
Queens University Bell Tower ,Evans Clock Tower Cir,Charlotte,"(Mecklenburg County, NC)",35.189713,-80.832739,Gym
Park Place Fountain ,449 N Wendover Rd,Charlotte,"(Mecklenburg County, NC)",35.189938,-80.804833,Gym
The North Carolina Liberty Tree ,2399 Freedom Park Service Rd,Charlotte,"(Mecklenburg County, NC)",35.190002,-80.845338,Gym
US Marine Corps ,Little Sugar Creek Greenway-C3,Charlotte,"(Mecklenburg County, NC)",35.19074,-80.844158,Gym
Eisenhower and Ford ,2435 Cumberland Ave,Charlotte,"(Mecklenburg County, NC)",35.191151,-80.844957,Gym
Pans Labryinth of Pyramidical Spires ,1209 Lilac Rd,Charlotte,"(Mecklenburg County, NC)",35.192698,-80.850821,Gym
The Sermon on the Mound ,2729 Park Rd,Charlotte,"(Mecklenburg County, NC)",35.193045,-80.851113,Gym
Outreach Presbyterian Church ,1073 Providence Rd,Charlotte,"(Mecklenburg County, NC)",35.193504,-80.824811,Gym
Golden Hugh Manaway Memorial ,1420-1422 Queens Rd,Charlotte,"(Mecklenburg County, NC)",35.195571,-80.827515,Gym
Little Sugar Creek Bridge ,1908 Freedom Park Service Rd,Charlotte,"(Mecklenburg County, NC)",35.196326,-80.838582,Gym
Myers Park Branch Library ,1361 Queens Rd,Charlotte,"(Mecklenburg County, NC)",35.196408,-80.827402,Gym
Mint Museum Fountain ,Mint Museum Plaza,Charlotte,"(Mecklenburg County, NC)",35.197757,-80.814107,Gym
Historic Gates at Mint Museum ,Mint Museum Plaza,Charlotte,"(Mecklenburg County, NC)",35.198274,-80.813105,Gym
The Big Lebowski's ,1524 East Blvd,Charlotte,"(Mecklenburg County, NC)",35.199871,-80.842214,Gym
The Gardener ,700-798 Ardsley Rd,Charlotte,"(Mecklenburg County, NC)",35.201372,-80.826992,Gym
The Mural at Longboard's ,1301 East Blvd,Charlotte,"(Mecklenburg County, NC)",35.202066,-80.844581,Gym
Charlotte Fire Department 6 ,249 S Laurel Ave,Charlotte,"(Mecklenburg County, NC)",35.202603,-80.822244,Gym
Fountain at Rush Dickson ,1096 Blythe Blvd,Charlotte,"(Mecklenburg County, NC)",35.202893,-80.837996,Gym
St Andrews Presbyterian Church ,2201 Springdale Ave,Charlotte,"(Mecklenburg County, NC)",35.202929,-80.85596,Gym
Hankins & Whittington ,1307 East Blvd,Charlotte,"(Mecklenburg County, NC)",35.204056,-80.847011,Gym
Clocktower Fountain ,926 S Kings Dr,Charlotte,"(Mecklenburg County, NC)",35.205334,-80.836191,Gym
Pebble Fountain ,Little Sugar Creek Greenway-C3,Charlotte,"(Mecklenburg County, NC)",35.206437,-80.836385,Gym
Gibbs Bench ,928 E Park Ave,Charlotte,"(Mecklenburg County, NC)",35.206904,-80.84691,Gym
Holy Trinity Greek Orthodox Church ,650-666 East Blvd,Charlotte,"(Mecklenburg County, NC)",35.20745,-80.852485,Gym
Center of Southend ,2108 South Blvd,Charlotte,"(Mecklenburg County, NC)",35.208074,-80.861862,Gym
Latta Park,824 E Park Ave,Charlotte,"(Mecklenburg County, NC)",35.20809116,-80.84782004,Nest
Ascension Lutheran ,956-998 Kenilworth Ave,Charlotte,"(Mecklenburg County, NC)",35.208644,-80.839461,Gym
PNC Clock Tower ,2000 Randolph Rd,Charlotte,"(Mecklenburg County, NC)",35.208747,-80.82284,Gym
Latta Park Pavilion ,601 E Park Ave,Charlotte,"(Mecklenburg County, NC)",35.209625,-80.850761,Gym
Resurrection Church ,2825 Shenandoah Ave,Charlotte,"(Mecklenburg County, NC)",35.209693,-80.798876,Gym
Mercy Seat ,2001 Vail Ave,Charlotte,"(Mecklenburg County, NC)",35.210061,-80.821146,Gym
Lil Mailbox ,417 S Cecil St,Charlotte,"(Mecklenburg County, NC)",35.210859,-80.834604,Gym
Balfour Lawn Sculpture ,1928 Camden Rd,Charlotte,"(Mecklenburg County, NC)",35.211017,-80.860366,Gym
Midtown Park,Little Sugar Creek Greenway-C3,Charlotte,"(Mecklenburg County, NC)",35.211025,-80.836229,Gym
Charlotte Fire Department 2 ,1819 South Blvd,Charlotte,"(Mecklenburg County, NC)",35.211026,-80.858335,Gym
Historic Commonwealth Park ,2816 Commonwealth Ave,Charlotte,"(Mecklenburg County, NC)",35.211449,-80.798205,Gym
Design Center Water Tower ,1920 Camden Rd,Charlotte,"(Mecklenburg County, NC)",35.211481,-80.860227,Gym
East/South Boulevard ,136-198 East Blvd,Charlotte,"(Mecklenburg County, NC)",35.211743,-80.8579,Gym
Starbucks ,1959 E 7th St,Charlotte,"(Mecklenburg County, NC)",35.21249465,-80.8179436,Gym
Heroes Comic Shop ,1959 E 7th St,Charlotte,"(Mecklenburg County, NC)",35.212508,-80.818053,Gym
The Portal ,1819-1825 E 7th St,Charlotte,"(Mecklenburg County, NC)",35.214221,-80.82008,Gym
Independence Park East Gazebo ,1701-1799 Park Dr,Charlotte,"(Mecklenburg County, NC)",35.21447,-80.821933,Gym
Caldwell Memorial Presbyterian Church ,1609 E 5th St,Charlotte,"(Mecklenburg County, NC)",35.214819,-80.825009,Gym
Rocky Fountains ,1424 South Blvd,Charlotte,"(Mecklenburg County, NC)",35.215317,-80.853865,Gym
Charlotte Badminton Club,345 Hawthorne Ln,Charlotte,"(Mecklenburg County, NC)",35.21561216,-80.82306862,Habitat
Bland Street Station - Blue Line ,1511 Camden Rd,Charlotte,"(Mecklenburg County, NC)",35.215804,-80.855273,Gym
St. Mary's Chapel ,1129 E 3rd St,Charlotte,"(Mecklenburg County, NC)",35.216079,-80.833212,Gym
Thompson Orphanage Bell ,1150-1166 NC-16,Charlotte,"(Mecklenburg County, NC)",35.216186,-80.833751,Gym
Bovine Beauties ,Charlotte Rail Trail,Charlotte,"(Mecklenburg County, NC)",35.21644,-80.854484,Gym
Chantilly Hall ,2101 Shenandoah Ave,Charlotte,"(Mecklenburg County, NC)",35.216492,-80.812259,Gym
Sloan - Morgan Building ,1220 Elizabeth Ave,Charlotte,"(Mecklenburg County, NC)",35.216752,-80.830578,Gym
Sheraton Sculpture ,537-599 NC-27,Charlotte,"(Mecklenburg County, NC)",35.216869,-80.839325,Gym
CPCC Citizens Fountain ,1221 Charlottetowne Ave,Charlotte,"(Mecklenburg County, NC)",35.216877,-80.828952,Gym
CPCC Central Library ,1300 Sam Ryburn Walk,Charlotte,"(Mecklenburg County, NC)",35.217598,-80.829539,Gym
Greater Galilee Baptist Church ,1598 S Mint St,Charlotte,"(Mecklenburg County, NC)",35.217701,-80.863531,Gym
North Carolina Military Institute ,404-456 NC-27,Charlotte,"(Mecklenburg County, NC)",35.218077,-80.848623,Gym
American Legion Memorial Stadium ,1218-1238 Armory Dr,Charlotte,"(Mecklenburg County, NC)",35.218188,-80.82711,Gym
Carson Station ,Charlotte Rail Trail,Charlotte,"(Mecklenburg County, NC)",35.218813,-80.850986,Gym
The Diamond Restaurant ,1901 Commonwealth Ave,Charlotte,"(Mecklenburg County, NC)",35.218951,-80.813272,Gym
Hawthorne Bridge Fountain ,914 Hawthorne Bridge Ct,Charlotte,"(Mecklenburg County, NC)",35.219099,-80.819643,Gym
Krazy Fish ,2515 Central Ave,Charlotte,"(Mecklenburg County, NC)",35.219458,-80.799985,Gym
Camden Fountain ,317 E Morehead St,Charlotte,"(Mecklenburg County, NC)",35.219538,-80.849007,Gym
Building Art ,1710 Central Ave,Charlotte,"(Mecklenburg County, NC)",35.219916,-80.809998,Gym
Little Sugar Creek Greenway at CPCC Statue ,Little Sugar Creek Greenway,Charlotte,"(Mecklenburg County, NC)",35.219941,-80.830243,Gym
Pint Central ,821-899 Lamar Ave,Charlotte,"(Mecklenburg County, NC)",35.220585,-80.817205,Gym
CMCU Artsy Bank ,710 Central Ave,Charlotte,"(Mecklenburg County, NC)",35.220814,-80.825072,Gym
Hummingbird Mosaic ,1430 E 10th St,Charlotte,"(Mecklenburg County, NC)",35.221907,-80.82215,Gym
Uptown Entrance Post 2 ,901-935 S Tryon St,Charlotte,"(Mecklenburg County, NC)",35.222252,-80.84971,Gym
Duke Energy Center ,170 W Stonewall St,Charlotte,"(Mecklenburg County, NC)",35.223591,-80.848512,Gym
 St. Peter's Catholic Church,507 South Tryon Street,Charlotte,"(Mecklenburg County, NC)",35.2241176,-80.8472011,Trainer Spot
American Flag Mural ,620 W Morehead St,Charlotte,"(Mecklenburg County, NC)",35.226439,-80.856136,Gym
United House of Prayer ,600 N Davidson St,Charlotte,"(Mecklenburg County, NC)",35.226782,-80.832221,Gym
Romare Bearden Park ,300 S Church St,Charlotte,"(Mecklenburg County, NC)",35.227021,-80.847812,Trainer Spot
The greens (park next to one wells fargo in uptown in Charlotte North Carolina,The greens (park next to one wells fargo in uptown,Charlotte,"(Mecklenburg County, NC)",35.2270869,-80.8431267,Trainer Spot
Captain James Jack Monument ,181-199 W Trade St,Charlotte,"(Mecklenburg County, NC)",35.2282,-80.844461,Gym
BB&T Ballpark ,339-399 NC-49,Charlotte,"(Mecklenburg County, NC)",35.22828,-80.849869,Gym
BB&T Ballpark,324 S Mint St,Charlotte,"(Mecklenburg County, NC)",35.22836909,-80.84846377,Habitat
Jim Crockett and Knights Painting ,301-337 NC-49,Charlotte,"(Mecklenburg County, NC)",35.228943,-80.849092,Gym
Sugar Creek Greenway Path (near Alexander Street Park),828 Belmont Ave,Charlotte,"(Mecklenburg County, NC)",35.229369,-80.823785,Gym
Fountain At 525 N. Tryon ,525 N Tryon St,Charlotte,"(Mecklenburg County, NC)",35.231181,-80.838604,Gym
C.F.D.,420 W 5th St,Charlotte,"(Mecklenburg County, NC)",35.231231,-80.845461,Gym
The Pub ,704 W Trade St,Charlotte,"(Mecklenburg County, NC)",35.232317,-80.848797,Gym
Innovation Institute Mural ,801 N Tryon St,Charlotte,"(Mecklenburg County, NC)",35.232851,-80.835645,Gym
4th Ward Fountain ,301 W 9th St,Charlotte,"(Mecklenburg County, NC)",35.232863,-80.839827,Gym
Outdoor Art ,1704 N Davidson St,Charlotte,"(Mecklenburg County, NC)",35.235352,-80.820232,Gym
Elmwood Cemetary,Pinewood Cemetery,Charlotte,"(Mecklenburg County, NC)",35.2383944,-80.8452398,Trainer Spot
Shoppes at University Place ,Downtown Charlotte and Shoppes at University Place,Charlotte,"(Mecklenburg County, NC)",35.3055973,-80.7504726,Trainer Spot
Dallas Park,591-599 Sportsman Dr,Dallas,"(Gaston County, NC)",35.31055518,-81.19960785,Nest
Stallings Road Park,4050 Stallings Rd,Harrisburg,"(Cabarrus County, NC)",35.31619324,-80.64421892,Nest
Harrisburg Park,210 Sims Pkwy,Harrisburg,"(Cabarrus County, NC)",35.3164121,-80.65753877,Nest
Calvary Chapel Asheville,5516 Boylston Hwy,Mills River,"(Henderson County, NC)",35.378466,-82.576814,Gym
Downtown Concord ,Downtown,Concord,"(Cabarrus County, NC)",35.4087517,-80.579511,Trainer Spot
Harnett County Veteran's Memorial,"GIS, 305 West Cornelius Harnett Boulevard",Lillington,"(Harnett County, NC)",35.420084,-78.810241,Trainer Spot
Birkdale Golf Club,16500 Birkdale Commons Parkway,Huntersville,"(Mecklenburg County, NC)",35.43749135,-80.88345051,Nest
Lutheran Church of the Nativity,2425 Hendersonville Rd,Arden,"(Buncombe County, NC)",35.460171,-82.512514,Gym
The Beehive Coffee Bar,3732 Sweeten Creek Rd,Arden,"(Buncombe County, NC)",35.474741,-82.515216,Gym
Ace of Spades Tattoo,90 Depot St,Waynesville,"(Haywood County, NC)",35.493175,-82.989303,Gym
Jack Marley Park,145 East Williams Street,Angier,"(Harnett County, NC)",35.509305,-78.735303,Trainer Spot
Sol Y Luna Cali-mex Cuisine and Bar,1636 Hendersonville Rd #195,Asheville,"(Buncombe County, NC)",35.513384,-82.523683,Gym
Hopey and Co,121 Sweeten Creek Rd,Asheville,"(Buncombe County, NC)",35.51391,-82.520631,Gym
Hominy Valley Park,25 Twin Lakes Dr,Candler,"(Buncombe County, NC)",35.527293,-82.669089,Gym
Harris Chapel AME Zion,26 Prospect,Canton,"(Haywood County, NC)",35.5289303,-82.8364891,Gym
Asheville Outlets,800 Brevard Rd,Asheville,"(Buncombe County, NC)",35.53294,-82.604155,Gym
Candler House of Prayer,1945 Smokey Park Hwy,Candler Heights,"(Buncombe County, NC)",35.54442,-82.709257,Gym
Rejavanation Café,909 Smokey Park Hwy #8950,Candler,"(Buncombe County, NC)",35.546705,-82.657042,Gym
Maple Ridge Baptist Church,404 Ridge St,Candler,"(Buncombe County, NC)",35.547999,-82.678806,Gym
Biltmore Forest,4 Vanderbilt Park Dr,Asheville,"(Buncombe County, NC)",35.55532,-82.538684,Gym
Church of the Resurrection,116 Sweeten Creek Rd,Asheville,"(Buncombe County, NC)",35.56287,-82.528502,Gym
Moe's Original BBQ,4 Sweeten Creek Rd #1,Asheville,"(Buncombe County, NC)",35.565972,-82.538383,Gym
Cheddar's Scratch Kitchen,106 Bleachery Blvd,Asheville,"(Buncombe County, NC)",35.576695,-82.513097,Gym
The Odditorium,1045 Haywood Rd,Asheville,"(Buncombe County, NC)",35.577742,-82.575283,Gym
Rocky's Hot Chicken Shack,1455 Patton Ave,Asheville,"(Buncombe County, NC)",35.578562,-82.609087,Gym
Bethel Seventh Day Adventist,238 S French Broad Ave,Asheville,"(Buncombe County, NC)",35.585406,-82.559383,Gym
Sisters of Mercy Urgent Care,1201 Patton Ave,Asheville,"(Buncombe County, NC)",35.58598,-82.601019,Gym
The Mountaineer Inn,155 Tunnel Rd,Asheville,"(Buncombe County, NC)",35.586445,-82.479122,Gym
YWCA of Asheville,185 South French Broad Avenue,Asheville,"(Buncombe County, NC)",35.587251,-82.559246,Gym
Good Vibes Silo,Queen Street,Asheville,"(Buncombe County, NC)",35.589241,-82.569069,Gym
Charles George VA Medical Center,"1100 Tunnel Rd, Asheville, NC 28805",Asheville,"(Buncombe County, NC)",35.5898854,-82.4841067,Gym
Aston Park Tennis Center,Hilliard Avenue,Asheville,"(Buncombe County, NC)",35.5906,-82.5602,Gym
Murals Under The Bridge ,Lexington Ave/240 Bridge murals ,Asheville,"(Buncombe County, NC)",35.591411,-82.551813,Gym
The Orange Peel,101 Biltmore Ave,Asheville ,"(Buncombe County, NC)",35.591418,-82.551139,Gym
Asheville Racquet Club Downtown,"27 Resort Dr, Asheville",Asheville,"(Buncombe County, NC)",35.593517,-82.579569,Gym
Lou Pollock Memorial Park ,25 New Leicester Hwy,Asheville,"(Buncombe County, NC)",35.597454,-82.621313,Gym
Tods Tasties and To-Go's,102 Montford Ave,Asheville,"(Buncombe County, NC)",35.599023,-82.561787,Gym
The Bywater,796 Riverside Dr,Asheville,"(Buncombe County, NC)",35.610843,-82.576719,Gym
Botanical Gardens At Asheville,151 W T. Weaver Boulevard,Asheville,"(Buncombe County, NC)",35.613425,-82.568226,Gym
Grovewood Gallery,111 Grovewood Rd,Asheville,"(Buncombe County, NC)",35.623053,-82.544081,Gym
Beaver Lake Bird Sanctuary,1020 US-25,Asheville,"(Buncombe County, NC)",35.625594,-82.553937,Gym
Grace Episcopal Church,871 Merrimon Ave,Asheville,"(Buncombe County, NC)",35.629168,-82.552834,Gym
Country Club of Asheville Memorial Garden ,170 Windsor Rd,Asheville,"(Buncombe County, NC)",35.642345,-82.554801,Gym
CW3 Mitch Carver Memorial,2979 New Leicester Hwy,Leicester,"(Buncombe County, NC)",35.655944,-82.713741,Gym
Millpond Trail,4436-4620 State Rd 1375,Raleigh,"(Wake County, NC)",35.71973616,-78.68705392,Nest
Symphony Lake Greenwa,8003 Regency Pkwy,Cary,"(Wake County, NC)",35.72858124,-78.79539371,Habitat
Kelly Road Park,Beaver Creek Greenway,Apex,"(Wake County, NC)",35.7325,-78.89432701,Nest
Montlawn Memorial Park,2911 S Wilmington St,Raleigh,"(Wake County, NC)",35.738297,-78.648943,Trainer Spot
Jesus With The Children ,3008 Old Raleigh Rd,Apex,"(Wake County, NC)",35.740258,-78.821655,Gym
Eva Perry Regional Library ,2100 Shepherds Vineyard Dr,Apex,"(Wake County, NC)",35.743603,-78.825235,Gym
Victorious Aztec Mural ,100 Macgregor Pines Dr,Cary,"(Wake County, NC)",35.74462,-78.819939,Gym
Marla Dorrel Park,181-299 Thurston Dr,Cary,"(Wake County, NC)",35.74614654,-78.76300335,Nest
Apex Community Park ,Lake Pine Dr,Apex,"(Wake County, NC)",35.746695,-78.816047,Gym
Camden Village Fountain ,1200 Park Summit Blvd,Apex,"(Wake County, NC)",35.748314,-78.821485,Gym
Apex Community Lake Trail,Chardstone Ct,Cary,"(Wake County, NC)",35.75200586,-78.82290998,Habitat
The Wake Zone Coffee House ,6108 Old Jenks Rd,Apex,"(Wake County, NC)",35.753965,-78.849385,Gym
Reubin A. McNeil Memorial ,100-110 Chardstone Ct,Cary,"(Wake County, NC)",35.754678,-78.826691,Gym
Salem Baptist Church ,1200 Salem Church Rd,Apex,"(Wake County, NC)",35.754706,-78.845466,Gym
Apex Community Park Entrance ,100-110 Chardstone Ct,Cary,"(Wake County, NC)",35.754706,-78.828589,Gym
Stratford Welcome Center Fountain ,107 Hertfordshire Ct,Cary,"(Wake County, NC)",35.75566,-78.77595,Gym
Greenway Playground ,Annie Jones Greenway,Cary,"(Wake County, NC)",35.760383,-78.808096,Gym
Annie Jones Park ,1414-1418 Tarbert Dr,Cary,"(Wake County, NC)",35.760462,-78.813386,Gym
Kirk of Kildaire ,200 High Meadow Dr,Cary,"(Wake County, NC)",35.762042,-78.785253,Gym
Duck Playground Equipment ,203 Ashton Pl,Cary,"(Wake County, NC)",35.763358,-78.788192,Gym
Woodland Pond ,300-316 Kildaire Woods Dr,Cary,"(Wake County, NC)",35.765922,-78.779178,Gym
Westhigh Evangelical Covenant Church ,590 Westhigh St,Cary,"(Wake County, NC)",35.766203,-78.840731,Gym
Mesh Woman ,1144 Executive Cir,Cary,"(Wake County, NC)",35.76711,-78.7822,Gym
The Cross Forgotten ,2891 SW Cary Pkwy,Cary,"(Wake County, NC)",35.768876,-78.831505,Gym
Cary Water Tower ,710-720 State Rd 1415,Cary,"(Wake County, NC)",35.769011,-78.764009,Gym
Historic Oak View County Park,Historic Oak View Ln,Raleigh,"(Wake County, NC)",35.76991492,-78.56999159,Nest
Anderson Point Park,Anderson Point Park Trail,Raleigh,"(Wake County, NC)",35.77047204,-78.54137778,Nest
Residential Neighborhood,Sherwood Greens Greenway,Cary,"(Wake County, NC)",35.770545,-78.852426,Gym
First Reformed Church of Cary ,555 SW Maynard Rd,Cary,"(Wake County, NC)",35.771298,-78.793833,Gym
The Oval,911 Partners Way,Raleigh,"(Wake County, NC)",35.77141217,-78.6743027,Habitat
Sneak Attack ,110 SW Maynard Rd,Cary,"(Wake County, NC)",35.771614,-78.783002,Gym
Ryan Tysinger ,Bond Lake Trail,Cary,"(Wake County, NC)",35.772765,-78.829005,Gym
Bethel Baptist Church ,1111 W Chatham St,Cary,"(Wake County, NC)",35.773096,-78.802608,Gym
Marker on the Bond Park Lake Trail ,Bond Park  ,Cary,"(Wake County, NC)",35.773109,-78.827782,Gym
Cary High ,800-862 Walnut St,Cary,"(Wake County, NC)",35.773185,-78.765529,Gym
Davis Drive Park Playground ,1610 Davis Dr,Apex,"(Wake County, NC)",35.773469,-78.844943,Gym
Davis Drive Park ,1698 NC-1613,Apex,"(Wake County, NC)",35.773629,-78.845802,Gym
Park Village Fountain ,100-172 Castle Hayne Dr,Cary,"(Wake County, NC)",35.774147,-78.854783,Gym
Bond Park Troop 212 Eagle Scout Project ,Bond Lake Trail,Cary,"(Wake County, NC)",35.774521,-78.826613,Gym
White Oak Park ,White Oak Creek Greenway,Cary,"(Wake County, NC)",35.774771,-78.860631,Gym
Cary Fire Dept Recognition ,Bond Lake Trail,Cary,"(Wake County, NC)",35.775014,-78.827792,Gym
Starbucks ,770 Cary Towne Blvd,Cary,"(Wake County, NC)",35.775164,-78.764947,Gym
Rooster Statue ,699-719 Cary Towne Blvd,Cary,"(Wake County, NC)",35.775724,-78.766649,Gym
Kassel Memorial ,Bond Lake Trail,Cary,"(Wake County, NC)",35.775999,-78.827613,Gym
White Oak Creek Greenway MacArthur Entrance ,White Oak Creek Greenway,Cary,"(Wake County, NC)",35.776316,-78.841817,Gym
In Memory of Kamryn ,101 YMCA Dr,Cary,"(Wake County, NC)",35.777018,-78.83522,Gym
Moore Square,201 S Blount St,Raleigh,"(Wake County, NC)",35.77751843,-78.63579154,Nest
Nash Square Park ,Nash Square Park,Raleigh,"(Wake County, NC)",35.7778347,-78.6423561,Trainer Spot
Pine Cone Trail Marker ,Black Creek Greenway,Cary,"(Wake County, NC)",35.779362,-78.825206,Gym
Cary Presbyterian Church ,614 Griffis St,Cary,"(Wake County, NC)",35.779568,-78.788792,Gym
Greenway Rules ,1308 Castalia Dr,Cary,"(Wake County, NC)",35.77963,-78.817523,Gym
Pullen Park,520 Ashe Ave,Raleigh,"(Wake County, NC)",35.77969352,-78.66371822,Nest
North Carolina State Capitol,1 W Edenton St,Raleigh,"(Wake County, NC)",35.78025586,-78.63929719,Nest
Pullen Park ,408 Ashe Ave,Raleigh,"(Wake County, NC)",35.78036,-78.66383,Trainer Spot
Fred G. Bond Metro Park,Black Creek Greenway,Cary,"(Wake County, NC)",35.78039032,-78.82512202,Nest
Bond Park Baseball Field 2 ,Pine Cone Trail,Cary,"(Wake County, NC)",35.780452,-78.821204,Gym
Good Shepherd United Church of Christ ,1050 NW Maynard Rd,Cary,"(Wake County, NC)",35.780812,-78.808176,Gym
White Oak Creek Trail Guide Post ,White Oak Creek Greenway,Cary,"(Wake County, NC)",35.781276,-78.830158,Gym
Fred G. Bond Bust ,Paw Paw Trail,Cary,"(Wake County, NC)",35.781321,-78.825858,Gym
Black Creek Greenway Trail Marker (near Battery Lake),Black Creek Greenway,Cary,"(Wake County, NC)",35.781746,-78.815539,Gym
Stained Glass Menagerie ,401-405 Faculty Ave,Cary,"(Wake County, NC)",35.782224,-78.781902,Gym
Bond Park White Oak Creek Greenway ,White Oak Creek Greenway,Cary,"(Wake County, NC)",35.78281,-78.826133,Gym
Brick Madonna ,60400 Black Creek Greenway,Cary,"(Wake County, NC)",35.78329,-78.810279,Gym
Bond Park Paw Paw Trail ,Bond Park Trail,Cary,"(Wake County, NC)",35.78404,-78.827657,Gym
Messenger ,308 S Academy St,Cary,"(Wake County, NC)",35.78427,-78.781334,Gym
Bond Park Community Center ,Paw Paw Trail,Cary,"(Wake County, NC)",35.784761,-78.824263,Gym
Korea Doorway ,757 High House Rd,Cary,"(Wake County, NC)",35.784859,-78.81945,Gym
High House Toilet Sign ,757 High House Rd,Cary,"(Wake County, NC)",35.785047,-78.819826,Gym
Free Expression Tunnel,Free Expression Tunnel,Raleigh,"(Wake County, NC)",35.78597849,-78.67171705,Habitat
The Red O ,611-663 NC-1616,Cary,"(Wake County, NC)",35.786122,-78.794032,Gym
Court of North Carolina,975 Current Dr,Raleigh,"(Wake County, NC)",35.78636579,-78.6666584,Nest
First Date ,200 S Academy St,Cary,"(Wake County, NC)",35.786516,-78.781399,Gym
Discovery ,200 S Academy St,Cary,"(Wake County, NC)",35.786524,-78.781918,Gym
Genesis United Methodist Church ,850 High House Rd,Cary,"(Wake County, NC)",35.787109,-78.825044,Gym
Solar Tree ,204 North Dixon Avenue,Cary,"(Wake County, NC)",35.787603,-78.788192,Gym
Jack Daniel ,301 N Harrison Ave,Cary,"(Wake County, NC)",35.788906,-78.783913,Gym
William Peace ,15 E Peace St,Raleigh,"(Wake County, NC)",35.78893,-78.637813,Gym
Cary Clock Tower ,4801 SW Cary Pkwy,Cary,"(Wake County, NC)",35.789113,-78.829307,Gym
Goodberrys Fountain ,2321-2325 NC-1613,Cary,"(Wake County, NC)",35.789606,-78.847438,Gym
Cornerstone Presbyterian Church ,Citrus Pl,Cary,"(Wake County, NC)",35.789658,-78.859873,Gym
Herbert Young Community Center ,101 Wilkinson Ave,Cary,"(Wake County, NC)",35.790088,-78.78046,Gym
The Backwards N ,1099-1239 High House Rd,Cary,"(Wake County, NC)",35.790624,-78.833333,Gym
Tree Man ,4216 NW Cary Pkwy,Cary,"(Wake County, NC)",35.790735,-78.827034,Gym
Stone Creek Circle ,Cornerstone Dr,Cary,"(Wake County, NC)",35.790856,-78.850897,Gym
Three Mounds ,1956-1998 Cameron St,Raleigh,"(Wake County, NC)",35.791152,-78.658875,Gym
Horse Head ,1677-1699 High House Rd,Cary,"(Wake County, NC)",35.791352,-78.846954,Gym
Rose Garden,2703 Everett Ave,Raleigh,"(Wake County, NC)",35.7915018,-78.66880681,Habitat
Jeremiah Mows Chatham Street ,725-749 State Rd 1011,Cary,"(Wake County, NC)",35.792085,-78.765053,Gym
Bradford Monument Sculpture ,2404 Davis Dr,Cary,"(Wake County, NC)",35.792153,-78.846623,Gym
Mordecai Spring Park ,915 Mordecai Dr,Raleigh,"(Wake County, NC)",35.792504,-78.634314,Gym
Union Bethel A.M.E. Church ,514 N Academy St,Cary,"(Wake County, NC)",35.792743,-78.780843,Gym
Andrew Johnson's Birthplace ,1001-1099 Wake Forest Rd,Raleigh,"(Wake County, NC)",35.792758,-78.63245,Gym
Red Bird ,701-751 Washington St,Raleigh,"(Wake County, NC)",35.792875,-78.64742,Gym
Methodist Orphanage ,913 Glenwood Ave,Raleigh,"(Wake County, NC)",35.792877,-78.646911,Gym
Prestonwood Country Club ,1498 High House Rd,Cary,"(Wake County, NC)",35.792888,-78.838093,Gym
Fred Fletcher Park,701-751 Washington St,Raleigh,"(Wake County, NC)",35.79295388,-78.64775419,Habitat
Mordecai - Birthplace of Andrew Johnson ,200-398 Cedar St,Raleigh,"(Wake County, NC)",35.793022,-78.632948,Gym
Old Breastworks ,1100-1108 Wake Forest Rd,Raleigh,"(Wake County, NC)",35.793896,-78.631507,Gym
Fountain ,23014 Bradford Green Square,Cary,"(Wake County, NC)",35.79421,-78.845415,Gym
Pilot Baptist Church ,1010 N Blount St,Raleigh,"(Wake County, NC)",35.794501,-78.63551,Gym
Black Creek Trail Marker (near James Jackson Ave),Black Creek Greenway,Cary,"(Wake County, NC)",35.795207,-78.801107,Gym
Prestonwood Clubhouse Fountain ,300 Prestonwood Pkwy,Cary,"(Wake County, NC)",35.795334,-78.835445,Gym
Lions Park ,1621-1625 Bennett St,Raleigh,"(Wake County, NC)",35.795788,-78.617553,Gym
Kite Statue 2 ,106 Marblecreek Ln,Cary,"(Wake County, NC)",35.795933,-78.850068,Gym
Thomas Brooks Park,9020-9098 NC-1600,Cary,"(Wake County, NC)",35.79628689,-78.89928102,Nest
Landmark Free Will Baptist Church ,9001 Chapel Hill Rd,Cary,"(Wake County, NC)",35.796361,-78.793827,Gym
Oberlin Cemetery ,1014 Oberlin Rd,Raleigh,"(Wake County, NC)",35.796766,-78.658816,Gym
Jehovah Witness ,522 Reedy Creek Rd,Cary,"(Wake County, NC)",35.796844,-78.766857,Gym
Lions Park Community Center ,520 Dennis Ave,Raleigh,"(Wake County, NC)",35.797199,-78.614279,Gym
Sun Fountain ,1009 Wade Ave,Raleigh,"(Wake County, NC)",35.797734,-78.658352,Gym
Boone's Cave Park,3426 Boones Cave Rd,Lexington,"(Davidson County, NC)",35.79814913,-80.46643674,Nest
Time Plus Light Tower ,1300 Capital Blvd,Raleigh,"(Wake County, NC)",35.798348,-78.638434,Gym
Incognito Gazebo ,1401-1485 St Marys St,Raleigh,"(Wake County, NC)",35.798541,-78.653149,Gym
The Brick Musician ,101 Black Creek Greenway,Cary,"(Wake County, NC)",35.798739,-78.795519,Gym
Greenway Underpass ,103 Black Creek Greenway,Cary,"(Wake County, NC)",35.79931,-78.794742,Gym
Giant Spikes ,128 Towerview Ct,Cary,"(Wake County, NC)",35.799734,-78.810206,Gym
Josephus Daniels -H39 ,1515 Glenwood Ave,Raleigh,"(Wake County, NC)",35.799748,-78.646284,Gym
Robert V Godbold Park,103 Black Creek Greenway,Cary,"(Wake County, NC)",35.79996782,-78.7921536,Nest
Jaycee Park ,2331-2379 Wade Ave,Raleigh,"(Wake County, NC)",35.800312,-78.662768,Gym
Circus Family Restaurant ,1600 Wake Forest Rd,Raleigh,"(Wake County, NC)",35.800321,-78.624963,Gym
Big Blue Water Tower ,920 N Harrison Ave,Cary,"(Wake County, NC)",35.800554,-78.782445,Gym
Hymettus Woods ,841-871 Dixie Trail,Raleigh,"(Wake County, NC)",35.801183,-78.676248,Gym
Robert V. Godbold Park ,Black Creek Greenway,Cary,"(Wake County, NC)",35.801302,-78.791436,Gym
SV Temple ,121 Balaji Pl,Cary,"(Wake County, NC)",35.801306,-78.805414,Gym
Black Creek Greenway Trailhead ,Black Creek Greenway,Cary,"(Wake County, NC)",35.801815,-78.79067,Gym
Deodar Cedar Tree Memorial ,1510 Cherokee Dr,Raleigh,"(Wake County, NC)",35.802058,-78.640121,Gym
Harrison Pointe ,101-149 NC-54,Cary,"(Wake County, NC)",35.802843,-78.782643,Gym
Preston Entrance ,100 Hogans Valley Way,Cary,"(Wake County, NC)",35.803435,-78.848379,Gym
Mother Mary ,3007 Leonard St,Raleigh,"(Wake County, NC)",35.803707,-78.675468,Gym
Five Points Mural ,1803 Glenwood Ave,Raleigh,"(Wake County, NC)",35.804769,-78.646488,Gym
Firehouse Mural ,270 Grande Heights Dr,Cary,"(Wake County, NC)",35.804818,-78.780607,Gym
Nofo's Piggy ,1811 Glenwood Ave,Raleigh,"(Wake County, NC)",35.805264,-78.646702,Gym
Fish Sculpture ,701 Georgetown Rd,Raleigh,"(Wake County, NC)",35.805666,-78.627464,Gym
North Carolina Library for the Blind ,1841 Capital Blvd,Raleigh,"(Wake County, NC)",35.805782,-78.618016,Gym
Modern Greyhound Station ,2210 Capital Blvd,Raleigh,"(Wake County, NC)",35.806227,-78.615663,Gym
Preston Village Bird House ,304-306 Preston Village Way,Cary,"(Wake County, NC)",35.806899,-78.856601,Gym
Park West Village ,2003 NW Cary Pkwy,Morrisville,"(Wake County, NC)",35.806914,-78.812471,Gym
White Memorial Presbyterian Church ,1740-1798 Oberlin Rd,Raleigh,"(Wake County, NC)",35.80721,-78.655564,Gym
Park West Fountain ,3300 Village Market Place,Morrisville,"(Wake County, NC)",35.807822,-78.819248,Gym
Ann and Jim Goodnight Museum Park (North Carolina Museum of Art -Blue Loop),Reedy Creek Trail,Raleigh,"(Wake County, NC)",35.80807746,-78.70010018,Nest
A Sculpture of Three Rings ,2009 Reaves Dr,Raleigh,"(Wake County, NC)",35.808486,-78.638097,Gym
Prestonwood Hole 14 Fountain ,611 Hogans Valley Way,Cary,"(Wake County, NC)",35.808738,-78.830542,Gym
Oak Hollow Community ,101-199 White Bluff Ln,Cary,"(Wake County, NC)",35.809571,-78.785686,Gym
Town of Cary Greenway System on Black Creek ,Black Creek Greenway,Cary,"(Wake County, NC)",35.8117,-78.787973,Gym
Gazebo Garden at Crosstimbers ,1333-1519 Golden Horseshoe Cir,Morrisville,"(Wake County, NC)",35.81329,-78.843912,Gym
Metal Maiden ,1597-1737 Golden Horseshoe Cir,Morrisville,"(Wake County, NC)",35.813668,-78.842945,Gym
Midnight Anchor ,2741-2783 McNeill St,Raleigh,"(Wake County, NC)",35.813834,-78.627605,Gym
Hatcher Grove Church ,3400 Davis Dr,Cary,"(Wake County, NC)",35.81411,-78.847675,Gym
Kiwanis Park ,2559 Noble Rd,Raleigh,"(Wake County, NC)",35.815111,-78.631045,Gym
Highland United Methodist Church ,1900 Ridge Rd,Raleigh,"(Wake County, NC)",35.816065,-78.682376,Gym
Triangulation ,2830 Capital Blvd,Raleigh,"(Wake County, NC)",35.817845,-78.596462,Gym
Dramatic Steel Sculpture ,800-824 E Six Forks Rd,Raleigh,"(Wake County, NC)",35.818261,-78.61987,Gym
Morrisville Square Clock Tower ,126 Morrisville Square Way,Morrisville,"(Wake County, NC)",35.819408,-78.828714,Gym
OLL Mary Statue ,2912 Anderson Dr,Raleigh,"(Wake County, NC)",35.819962,-78.634482,Gym
Veterans Freedom Park,1517 N Harrison Ave,Cary,"(Wake County, NC)",35.82077104,-78.77227306,Nest
Praying Mantis Sculpture ,3328-3330 White Oak Rd,Raleigh,"(Wake County, NC)",35.821289,-78.647062,Gym
Styrax Japonicus ,Indian Creek Greenway,Morrisville,"(Wake County, NC)",35.82237,-78.829853,Gym
Joe's Totem ,3000 Wake Forest Rd,Raleigh,"(Wake County, NC)",35.823319,-78.621479,Gym
Cedar Fork District Park ,601 Liberty Hill Pass,Morrisville,"(Wake County, NC)",35.824872,-78.822191,Gym
Lassiter Mills Dam Bridge ,3600 Lassiter Mill Rd,Raleigh,"(Wake County, NC)",35.825781,-78.649157,Gym
Given in Honor of Her Grandchildren ,129 Pasquotank Dr,Raleigh,"(Wake County, NC)",35.826172,-78.667392,Gym
Glen Eden Pilot Park,House Creek Greenway Trail,Raleigh,"(Wake County, NC)",35.82733019,-78.68382454,Nest
Hyatt Place Fountain ,1105 Navaho Dr,Raleigh,"(Wake County, NC)",35.828719,-78.621228,Gym
H3 - Isaac Hunter's Tavern ,3486 Wake Forest Rd,Raleigh,"(Wake County, NC)",35.829893,-78.618887,Gym
Marshall Memorial Park ,House Creek Greenway Trail,Raleigh,"(Wake County, NC)",35.830285,-78.680855,Gym
Dead Stingray Sculpture ,3700 Glenwood Ave,Raleigh,"(Wake County, NC)",35.831184,-78.666408,Gym
George Marshall Memorial Park ,House Creek Greenway Trail,Raleigh,"(Wake County, NC)",35.83347,-78.677617,Gym
Fountain At Glen Lake 1 ,4140 Parklake Ave,Raleigh,"(Wake County, NC)",35.835965,-78.688815,Gym
Multi Colored Fountain ,100-108 Park at N Hills St,Raleigh,"(Wake County, NC)",35.8362,-78.636702,Gym
The Wing Express ,1721 New Hope Church Rd,Raleigh,"(Wake County, NC)",35.8364,-78.609985,Gym
North Hills Cinema ,4150 Main at North Hills St,Raleigh,"(Wake County, NC)",35.836595,-78.642171,Gym
North Hills Shopping Center Fountain ,4350 Lassiter at North Hills Ave,Raleigh,"(Wake County, NC)",35.837653,-78.643618,Gym
Postal I.T. Gazebo ,1501-1543 Forest Ridge Rd,Raleigh,"(Wake County, NC)",35.837735,-78.612111,Gym
Buffaloe Cemetery ,1656-4098 Chowan Cir,Raleigh,"(Wake County, NC)",35.837941,-78.657489,Gym
Eastgate Park Gazebos ,4200 Quail Hollow Dr,Raleigh,"(Wake County, NC)",35.839274,-78.62401,Gym
Savannah Mural ,4299 Green Rd,Raleigh,"(Wake County, NC)",35.839437,-78.591611,Gym
Greenway bridge ,1816 Generation Dr,Raleigh,"(Wake County, NC)",35.839642,-78.663933,Gym
Red Monkey Biplane ,4315 Glenwood Ave,Raleigh,"(Wake County, NC)",35.839706,-78.678428,Gym
Flying Car ,4601 Crabtree Valley Ave,Raleigh,"(Wake County, NC)",35.840024,-78.680633,Gym
North Hills Time Capsule ,4421 Six Forks Rd,Raleigh,"(Wake County, NC)",35.84034,-78.643303,Gym
Steel Crabtree Sculpture ,4391-4471 US-70,Raleigh,"(Wake County, NC)",35.840881,-78.678926,Gym
GET MORE FREE ITEMS ,4611 Glenwood Ave,Raleigh,"(Wake County, NC)",35.84102325,-78.67989763,Gym
Lake Crabtree County Park,Old Beech Nature Trail,Morrisville,"(Wake County, NC)",35.84192592,-78.79625882,Habitat
Buddha Belly at Kanki ,1603 N Market Dr,Raleigh,"(Wake County, NC)",35.841969,-78.610362,Gym
Ironwood Trail - North ,1701-1799 North Hills Dr,Raleigh,"(Wake County, NC)",35.842496,-78.66234,Gym
Wake Chapel Church ,4535-4553 Bland Rd,Raleigh,"(Wake County, NC)",35.842968,-78.614764,Gym
The Old Crabtree Creek Abandoned Bridge ,4301 Creedmoor Rd,Raleigh,"(Wake County, NC)",35.844187,-78.687561,Gym
Northbrook County Club ,4905 North Hills Dr,Raleigh,"(Wake County, NC)",35.844635,-78.661441,Gym
Curiously Out of Place Weather ,4816 Six Forks Rd,Raleigh,"(Wake County, NC)",35.846128,-78.64373,Gym
Trinity Baptist Stain Glass ,4811-4813 Six Forks Rd,Raleigh,"(Wake County, NC)",35.846956,-78.644515,Gym
Raleigh Aikikai ,2210 E Millbrook Rd,Raleigh,"(Wake County, NC)",35.847087,-78.600652,Gym
Windemere Fountain ,2102 Ravenglass Pl,Raleigh,"(Wake County, NC)",35.849187,-78.674742,Gym
Little Girl Fountain ,Wyatt Brook Way,Raleigh,"(Wake County, NC)",35.849611,-78.607451,Gym
Atomic Girl ,1310 E Millbrook Rd,Raleigh,"(Wake County, NC)",35.850238,-78.615555,Gym
Church of Jesus Christ of Latter-Day Saints ,5060 Six Forks Rd,Raleigh,"(Wake County, NC)",35.850614,-78.64309,Gym
Scatter Memorials ,1519-1585 E Millbrook Rd,Raleigh,"(Wake County, NC)",35.850674,-78.609927,Gym
Inter-Dimensional Bike Ride ,1911 Sego Ct,Raleigh,"(Wake County, NC)",35.851344,-78.601582,Gym
Labyrinth at the Sacred Garden ,5829 Pointer Dr,Raleigh,"(Wake County, NC)",35.851613,-78.610514,Gym
Temple Beth Or ,5315 Creedmoor Rd,Raleigh,"(Wake County, NC)",35.855286,-78.681784,Gym
Elk Sculpture ,1601 W Millbrook Rd,Raleigh,"(Wake County, NC)",35.855703,-78.670091,Gym
North Raleigh Chapel ,5421 Six Forks Rd,Raleigh,"(Wake County, NC)",35.855807,-78.641814,Gym
Shelley Lake Lower Park Entrance ,900-998 W Millbrook Rd,Raleigh,"(Wake County, NC)",35.85585,-78.66136,Gym
Starbucks ,5550 Creedmoor Rd,Raleigh,"(Wake County, NC)",35.856886,-78.679668,Gym
Shellbrook Gazebo ,905 Shellbrook Court,Raleigh,"(Wake County, NC)",35.857461,-78.652612,Gym
Raleigh Racket Club ,5517 Falls of Neuse Rd,Raleigh,"(Wake County, NC)",35.858259,-78.616339,Gym
Sertoma Arts Center ,Greenway Trail,Raleigh,"(Wake County, NC)",35.858938,-78.664526,Gym
St. Raphael Church ,5801 Falls of Neuse Rd,Raleigh,"(Wake County, NC)",35.859118,-78.618288,Gym
Cedar Hills Rotary Park South Entrance ,6008 Cranberry Dr,Raleigh,"(Wake County, NC)",35.859182,-78.633259,Gym
Shelly Lake Dedication to Arch ,Greenway Trail,Raleigh,"(Wake County, NC)",35.85958,-78.66321,Gym
Dixon's Clogged Fountain ,5521 Dixon Dr,Raleigh,"(Wake County, NC)",35.859916,-78.64882,Gym
Huge Blue ,5711-5715 Six Forks Rd,Raleigh,"(Wake County, NC)",35.860035,-78.639046,Gym
321-373 Spring Forest Rd,321-373 Spring Forest Rd,Raleigh,"(Wake County, NC)",35.860757,-78.630598,Gym
Optimist Park ,5900 Whittier Dr,Raleigh,"(Wake County, NC)",35.862467,-78.643768,Gym
Wake County Shrine Club ,6099 Knollrock Dr,Raleigh,"(Wake County, NC)",35.862787,-78.672136,Gym
The Fox ,5946-5948 Whitebud Dr,Raleigh,"(Wake County, NC)",35.863814,-78.623824,Gym
Watermelon Shack ,1108 Logger Ct,Raleigh,"(Wake County, NC)",35.863939,-78.620314,Gym
Lake Park Swim Club Marlin ,6344 Rushingbrook Dr,Raleigh,"(Wake County, NC)",35.864198,-78.664619,Gym
Oogalah Boogalah ,700-864 Lynn Rd,Raleigh,"(Wake County, NC)",35.868795,-78.650557,Gym
Millbrook Exchange Park,1905 Spring Forest Rd,Raleigh,"(Wake County, NC)",35.86880381,-78.60677004,Nest
Millbrook Exchange Park,1905 Spring Forest Rd,Raleigh,"(Wake County, NC)",35.8695516,-78.6030759,Nest
Williams Park,1525 Lynn Rd,Raleigh,"(Wake County, NC)",35.87016052,-78.66545956,Nest
C. M. Herndon Park,553 Scott King Rd,Durham,"(Durham County, NC)",35.87750191,-78.93586367,Nest
Lake Lynn Community Center,7809 Sandy Bottom Way,Raleigh,"(Wake County, NC)",35.88735336,-78.69828342,Nest
UNC Finley Golf Club,100 Old Mason Farm Rd,Chapel Hill,"(Orange County, NC)",35.89671606,-79.02199745,Nest
North Carolina Botanical Garden,870 Laurel Hill Rd,Chapel Hill,"(Orange County, NC)",35.89908002,-79.03343439,Nest
Baileywick Road Park,Chander Dr,Raleigh,"(Wake County, NC)",35.90865682,-78.66824627,Habitat
Strickland Road Neighborhood Park,12804 Strickland Rd,Raleigh,"(Wake County, NC)",35.90950407,-78.71457338,Nest
Battle Park,Battle Branch Trail,Chapel Hill,"(Orange County, NC)",35.91434412,-79.0431869,Nest
Henry W. Baldwin Park,306-398 Broad St,Carrboro,"(Orange County, NC)",35.91483941,-79.06839967,Habitat
Umstead Park,Tanyard Branch Trail,Chapel Hill,"(Orange County, NC)",35.92115184,-79.06182826,Habitat
Woodcroft Swim & Tennis Club,1203 W Woodcroft Pkwy,Durham,"(Durham County, NC)",35.9212561,-78.95009279,Nest
Garrett Road Park,Third Fork Creek Trail,Durham,"(Durham County, NC)",35.92194249,-78.95983458,Nest
Main Street Park,300 Brown Cir,Rolesville,"(Wake County, NC)",35.92360195,-78.4610939,Nest
Community Park,265-299 Plant Rd,Chapel Hill,"(Orange County, NC)",35.92591298,-79.03329492,Nest
Southside Baptist Church ,2515 Bellemeade St,High Point,"(Guilford County, NC)",35.92714021,-79.98122921,Gym
Picnic Area ,555 E Springfield Rd,High Point,"(Guilford County, NC)",35.93214424,-79.98165836,Gym
God Is Love ,121 SW Cloverleaf Pl,High Point,"(Guilford County, NC)",35.9326,-79.9933,Gym
Mill Bridge Nature Park,426 Nature Park Dr,Wake Forest,"(Wake County, NC)",35.93345838,-78.48332841,Nest
Model Farm ,127-163 Model Farm Rd,High Point,"(Guilford County, NC)",35.9342,-79.9895,Gym
Iglesia Bautista Monte Sinai ,302 Burton Ave,High Point,"(Guilford County, NC)",35.9380008,-80.0291344,Gym
High Point Water Tower ,1702 Bradley PL,High Point,"(Guilford County, NC)",35.9391,-80.0252,Gym
Tailrace Trail,Pleasant Union Church Rd,Wake Forest,"(Wake County, NC)",35.94007309,-78.58213663,Nest
Oak Hill Friends Meeting ,423 North Ward Ave,High Point,"(Guilford County, NC)",35.9409,-80.0336,Gym
Bethesda Park,Bethesda Park Trail,Durham,"(Durham County, NC)",35.9440253,-78.84606063,Habitat
Happy Chef ,1677 Westchester Dr,High Point,"(Guilford County, NC)",35.9499,-80.0325,Gym
Green Street ,303 N Rotary Dr,High Point,"(Guilford County, NC)",35.95,-80.0231,Gym
Longs Memorial AME Zion Church ,515 Cook Rd,Durham,"(Durham County, NC)",35.950911,-78.911585,Gym
Guardians of the Gate ,322 W Russell Ave,High Point,"(Guilford County, NC)",35.951985,-80.010043,Gym
Lion And Lamb ,401 S Main St,High Point,"(Guilford County, NC)",35.952229,-80.004194,Gym
Sleeping Goddess ,315 S Elm St,High Point,"(Guilford County, NC)",35.952498,-80.005862,Gym
English Road Baptist Church ,1111-1119 W English Rd,High Point,"(Guilford County, NC)",35.952899,-80.017105,Gym
Christ's Community Church ,901 W English Rd,High Point,"(Guilford County, NC)",35.954228,-80.015333,Gym
Homestead Park,100 Northern Park Dr,Chapel Hill,"(Orange County, NC)",35.954717,-79.06332493,Habitat
Wesley Memorial United Methodist Church ,1103-1225 Chestnut Dr,High Point,"(Guilford County, NC)",35.955027,-80.029555,Gym
Coz Memorial Free Will Baptist Church ,1632 Riddle Rd,Durham,"(Durham County, NC)",35.955266,-78.893402,Gym
Guilford Technical ,722 W English Rd,High Point,"(Guilford County, NC)",35.955587,-80.013426,Gym
White & Black ,201 S Hamilton St,High Point,"(Guilford County, NC)",35.955724,-80.002398,Gym
Forbidden City Museum ,320 E Commerce Ave,High Point,"(Guilford County, NC)",35.955969,-80.001472,Gym
Ragan and Mills Building ,115 NC-1993,High Point,"(Guilford County, NC)",35.956703,-80.005254,Gym
Southern Boundaries Park ,3401-3459 3rd Fork Rd,Durham,"(Durham County, NC)",35.956827,-78.928093,Gym
White Rock Baptist Church ,1327 Timothy Ave,Durham,"(Durham County, NC)",35.957505,-78.910437,Gym
Tree Frog Mural ,205 Hayden Pl,High Point,"(Guilford County, NC)",35.958365,-80.007582,Gym
A High Point Hero ,200-208 North Main St,High Point,"(Guilford County, NC)",35.95886,-80.00651,Gym
Cedar Falls Park,467-507 State Rd 1733,Chapel Hill,"(Orange County, NC)",35.95961507,-79.03210402,Nest
Ebenezer Missionary Baptist Church ,2204 S Alston Ave,Durham,"(Durham County, NC)",35.960404,-78.885868,Gym
Mount Zion Baptist Church ,753 E Washington Dr,High Point,"(Guilford County, NC)",35.961111,-79.998065,Gym
Pearson Memorial African Methodist Episcopal Church ,835 E Washington Dr,High Point,"(Guilford County, NC)",35.962264,-79.994798,Gym
Campus Hills Picnic And Playground ,2000 S Alston Ave,Durham,"(Durham County, NC)",35.962485,-78.891132,Gym
Church Of Christ ,800 Elmira Ave,Durham,"(Durham County, NC)",35.962602,-78.900574,Gym
Elmira Avenue Park,Rocky Creek Trail,Durham,"(Durham County, NC)",35.96327106,-78.90399635,Habitat
Chest of Drawers ,508 N Hamilton St,High Point,"(Guilford County, NC)",35.963528,-80.008304,Gym
Bell-Yeager F.W.B. Church ,128 E Cornwallis Rd,Durham,"(Durham County, NC)",35.963871,-78.917553,Gym
Ray St Wall Mural ,788 N Main St,High Point,"(Guilford County, NC)",35.964388,-80.011029,Gym
Elmira Ave. Park ,Rocky Creek Trail,Durham,"(Durham County, NC)",35.96454,-78.903576,Gym
Greelman Mausoleum ,509-599 Steele St,High Point,"(Guilford County, NC)",35.964598,-80.006519,Gym
South Court Fountain ,3211 Shannon Rd,Durham,"(Durham County, NC)",35.964874,-78.954487,Gym
Kirkman with Lifted Hands ,512 Steele St,High Point,"(Guilford County, NC)",35.965098,-80.006311,Gym
Emerywood Baptist Church ,1300 Country Club Dr,High Point,"(Guilford County, NC)",35.9652,-80.0354,Gym
1300 Country Club Dr,1300 Country Club Dr,High Point,"(Guilford County, NC)",35.96529,-80.034965,Gym
United House of Prayer for all People ,102 Hoskins St,High Point,"(Guilford County, NC)",35.965581,-79.986252,Gym
Wrennn Welch the Lord is my Shepherd ,Oakwood Cemetery,High Point,"(Guilford County, NC)",35.966394,-80.008947,Gym
The Johnson Praying Memorial ,Oakwood Cemetery,High Point,"(Guilford County, NC)",35.96678,-80.007914,Gym
Family Statue ,Hillcrest Dr,High Point,"(Guilford County, NC)",35.966971,-80.015005,Gym
First Presbyterian Church ,918 N Main St,High Point,"(Guilford County, NC)",35.9673,-80.0133,Gym
Sandy Creek Park,Sandy Creek Trail,Durham,"(Durham County, NC)",35.96820768,-78.96820307,Habitat
Bernice Bienenstock Furniture Library ,1011 N Main St,High Point,"(Guilford County, NC)",35.9685,-80.015,Gym
Mount Calvary Church Plaque ,1715 Athens Ave,Durham,"(Durham County, NC)",35.968575,-78.891066,Gym
John Coltrane ,1010-1020 University Ave,High Point,"(Guilford County, NC)",35.969195,-79.996681,Gym
Epworth Church ,3002 NC-751,Durham,"(Durham County, NC)",35.969748,-78.932677,Gym
Mother Teresa ,1032 University Ave,High Point,"(Guilford County, NC)",35.969787,-79.995487,Gym
St. Mary's Episcopal Church ,108 W Farriss Ave,High Point,"(Guilford County, NC)",35.969897,-80.016032,Gym
NCCU Library ,700 Cecil St,Durham,"(Durham County, NC)",35.970005,-78.896069,Gym
H.M. Michaux Jr. Archway ,700 Cecil St,Durham,"(Durham County, NC)",35.971114,-78.896542,Gym
Jack and Donna Finch Fountain ,Extraordinary Way,High Point,"(Guilford County, NC)",35.971309,-79.99248,Gym
One Hell of a Band Mural ,1236 N Main St,High Point,"(Guilford County, NC)",35.971546,-80.01626,Gym
High Point University Fountain ,833 Montlieu Ave,High Point,"(Guilford County, NC)",35.971556,-79.994089,Gym
Priceless Flowers ,1313 N Main St,High Point,"(Guilford County, NC)",35.972128,-80.017069,Gym
George W. Newton Plaque ,1616 Cooper St,Durham,"(Durham County, NC)",35.972154,-78.881918,Gym
Rockwood Park ,2398 Whitley Dr,Durham,"(Durham County, NC)",35.973379,-78.921277,Gym
Yates Baptist Church ,2819 Chapel Hill Rd,Durham,"(Durham County, NC)",35.97366,-78.936627,Gym
Emu at Guglhupf ,2800-2804 US-501 BUS,Durham,"(Durham County, NC)",35.97417,-78.932725,Gym
Nana Taco ,2512 University Dr,Durham,"(Durham County, NC)",35.974403,-78.924569,Gym
Durham County Library - McDoug ,1101 E Lawson St,Durham,"(Durham County, NC)",35.974554,-78.890479,Gym
Wisdom & Knowledge ,1613 E Lawson St,Durham,"(Durham County, NC)",35.974658,-78.881689,Gym
NCCU Taylor Education Building ,1801 Fayetteville St,Durham,"(Durham County, NC)",35.97467,-78.897998,Gym
Centennial Chapel ,1912 Fayetteville St,Durham,"(Durham County, NC)",35.97468,-78.90137,Gym
Lexington Church ,620 E Lexington Ave,High Point,"(Guilford County, NC)",35.976193,-80.008539,Gym
NCCU University ,1771-1799 State Rd 1118,Durham,"(Durham County, NC)",35.976586,-78.900707,Gym
Providence Church of God in Christ ,1210 Montlieu Ave,High Point,"(Guilford County, NC)",35.978316,-79.980566,Gym
Cornwallis Road Park,2916-2920 Wade Rd,Durham,"(Durham County, NC)",35.97845766,-78.95172358,Nest
Lincoln Memorial Baptist Church ,1500 S Roxboro St,Durham,"(Durham County, NC)",35.979582,-78.905836,Gym
Amy Winston Carr Memorial Garden ,1712-1748 US-501 BUS,Durham,"(Durham County, NC)",35.979637,-78.915033,Gym
Lebanon UMC ,237 Idol St,High Point,"(Guilford County, NC)",35.979793,-80.025937,Gym
The Plank Road ,1859 E Lexington Ave,High Point,"(Guilford County, NC)",35.979923,-79.992107,Gym
Ball and Pail ,1613 McGuinn Dr,High Point,"(Guilford County, NC)",35.980066,-79.99188,Gym
Bicycle Toy and Hobby ,2000-2004 NC-1993,High Point,"(Guilford County, NC)",35.981304,-80.022041,Gym
Angier Avenue Baptist Church ,2101 Angier Ave,Durham,"(Durham County, NC)",35.982128,-78.877611,Gym
Ailey Young Park,758 E Juniper Ave,Wake Forest,"(Wake County, NC)",35.982243,-78.49752903,Habitat
Durham County Library ,508 E Umstead St,Durham,"(Durham County, NC)",35.982699,-78.898411,Gym
Glass Tower ,2101 N Main St,High Point,"(Guilford County, NC)",35.983076,-80.023968,Gym
55 Water Tower ,1336-1372 E Pettigrew St,Durham,"(Durham County, NC)",35.983244,-78.888173,Gym
Mount Vernon Baptist ,1007 S Roxboro St,Durham,"(Durham County, NC)",35.983817,-78.902589,Gym
Hayti Heritage Center ,804 Fayetteville St,Durham,"(Durham County, NC)",35.985826,-78.898025,Gym
Shepard House ,111 N Driver St,Durham,"(Durham County, NC)",35.986379,-78.878229,Gym
Lyon Park ,1162-1184 W Lakewood Ave,Durham,"(Durham County, NC)",35.98643,-78.918908,Gym
Wrightwood Park ,1303-1311 Anderson St,Durham,"(Durham County, NC)",35.986542,-78.933151,Gym
Mother Mary Mural ,2009a Chapel Hill Rd,Durham,"(Durham County, NC)",35.986729,-78.927057,Gym
Wesleyan Church ,1917 North Centennial St,High Point,"(Guilford County, NC)",35.98695988,-80.00134777,Gym
Welcome To SWAMP ,2500-2548 NC-751,Durham,"(Durham County, NC)",35.987235,-78.941091,Gym
Durham Mission Church ,1205 E Main St,Durham,"(Durham County, NC)",35.98747,-78.887436,Gym
Fit Trail - Side Lunge ,2500-2548 NC-751,Durham,"(Durham County, NC)",35.987712,-78.94206,Gym
All The Same Values ,401 E Lakewood Ave,Durham,"(Durham County, NC)",35.987739,-78.900649,Gym
Holy Cross Orthodox Church ,645 Greensboro Rd,High Point,"(Guilford County, NC)",35.988124,-79.969093,Gym
Morehead Hill ,1000-1020 S Duke St,Durham,"(Durham County, NC)",35.988184,-78.909132,Gym
Lady Liberty Statue ,928 Mall Loop Rd,High Point,"(Guilford County, NC)",35.988527,-80.004053,Gym
Busy Street Mural ,23 Shoppers St,Durham,"(Durham County, NC)",35.988593,-78.928057,Gym
John Sprunt Hill ,900-998 S Duke St,Durham,"(Durham County, NC)",35.989681,-78.909081,Gym
Wall Mural ,Fayetteville St,Durham,"(Durham County, NC)",35.989776,-78.893141,Gym
Beard's Hat Shop ,801-899 W Main St,Jamestown,"(Guilford County, NC)",35.990666,-79.957833,Gym
Mech-quus ,807 E Main St,Durham,"(Durham County, NC)",35.990721,-78.889736,Gym
Ecclesia House of Prayer ,639-699 NC-55,Durham,"(Durham County, NC)",35.991218,-78.886213,Gym
Dothan Praise and Worship Ministries ,106-118 Wade St,Jamestown,"(Guilford County, NC)",35.991501,-79.944148,Gym
First Calvary Baptist Church ,1371 Morehead Ave,Durham,"(Durham County, NC)",35.991707,-78.919806,Gym
Morehead Baptist Church ,1008 Morehead Ave,Durham,"(Durham County, NC)",35.991834,-78.916192,Gym
Durham Bulls Athletic Park,280 S Mangum St,Durham,"(Durham County, NC)",35.99235226,-78.90385151,Habitat
Willett's Statue Of Angelic UNC Fan ,870-898 Chapel Hill Rd,Durham,"(Durham County, NC)",35.992636,-78.922313,Gym
Circular Iron ,400 Blackwell St,Durham,"(Durham County, NC)",35.992642,-78.905391,Gym
Long Meadow Park ,701 N Hyde Park Ave,Durham,"(Durham County, NC)",35.992804,-78.881968,Gym
Lord Cornwallis ,562-598 W Main St,Jamestown,"(Guilford County, NC)",35.993,-79.946166,Gym
Jamestown Public Library ,100 Ragsdale Rd,Jamestown,"(Guilford County, NC)",35.993015,-79.938952,Gym
Elliot Monument ,1500-1598 Belfort St,Durham,"(Durham County, NC)",35.993075,-78.921953,Gym
Pangolin Sculpture ,208-252 N Elizabeth St,Durham,"(Durham County, NC)",35.993326,-78.890855,Gym
Basin and Range ,9 Julian Carr St,Durham,"(Durham County, NC)",35.993556,-78.904676,Gym
Home of Dr. Shubal Gardner Coffin circa 1855 ,109 W Main St,Jamestown,"(Guilford County, NC)",35.993616,-79.936371,Gym
Duke University Golf Club,7550-7598 Science Dr,Durham,"(Durham County, NC)",35.99379758,-78.94859076,Nest
Antioch Baptist Church ,1415 Holloway St,Durham,"(Durham County, NC)",35.994327,-78.875594,Gym
Conceptual Flame ,1800 Morehead Ave,Durham,"(Durham County, NC)",35.994787,-78.926949,Gym
Tobacco and E.J. Parrish ,161-199 E Parrish St,Durham,"(Durham County, NC)",35.995188,-78.899431,Gym
Hallelujah Baptist Church ,2507-2511 Guyer St,High Point,"(Guilford County, NC)",35.995215,-79.993564,Gym
Turtles ,W Parkside Dr,Jamestown,"(Guilford County, NC)",35.995357,-79.94879,Gym
Trinity United Methodist Church ,215 N Church St,Durham,"(Durham County, NC)",35.995428,-78.898393,Gym
3 Angel Statues ,723 Anderson St,Durham,"(Durham County, NC)",35.99546,-78.929385,Gym
SEEDS ,344-348 N Elizabeth St,Durham,"(Durham County, NC)",35.995545,-78.890616,Gym
Fishy Rainbows ,122 W Main St,Durham,"(Durham County, NC)",35.995558,-78.901391,Gym
Bartlett S. Durham ,1610 Jackson St,Durham,"(Durham County, NC)",35.996003,-78.925159,Gym
Shelter 6 ,Park Dr,Jamestown,"(Guilford County, NC)",35.996044,-79.95194,Gym
Veteran's Memorial Wall ,1611 Duke University Rd,Durham,"(Durham County, NC)",35.99626,-78.924543,Gym
Brick Bull ,1115 W Chapel Hill St,Durham,"(Durham County, NC)",35.996655,-78.916521,Gym
Gyroscope ,1410 W Chapel Hill St,Durham,"(Durham County, NC)",35.996794,-78.920915,Gym
Dancing Milkweed V ,252-298 E Chapel Hill St,Durham,"(Durham County, NC)",35.996849,-78.901929,Gym
Five Points East ,100-126 E Chapel Hill St,Durham,"(Durham County, NC)",35.996856,-78.90366,Gym
Pauli Murray Sign ,1102 W Chapel Hill St,Durham,"(Durham County, NC)",35.996869,-78.915868,Gym
Duke Memorial United Methodist ,504 W Chapel Hill St,Durham,"(Durham County, NC)",35.997176,-78.90919,Gym
Civil Rights Mural ,110 Morris St,Durham,"(Durham County, NC)",35.997425,-78.903286,Gym
East End Park 2 ,965 Mallard Ave,Durham,"(Durham County, NC)",35.997457,-78.887401,Gym
Word of Life Tabernacle ,1801 Deep River Rd,High Point,"(Guilford County, NC)",35.997521,-79.975964,Gym
Northwood UMC ,2409 Ambassador Ct,High Point,"(Guilford County, NC)",35.9983,-79.9932,Gym
Greater St. Paul Baptist Church ,1102 Juniper St,Durham,"(Durham County, NC)",35.998644,-78.881163,Gym
Public Hardware Mural ,505 N Mangum St,Durham,"(Durham County, NC)",35.99868,-78.897756,Gym
Nasher Punk ,1914-1980 Duke University Rd,Durham,"(Durham County, NC)",35.99878,-78.929628,Gym
Greater Harvest Pentecostal ,206-298 Gray Ave,Durham,"(Durham County, NC)",35.999527,-78.894384,Gym
Torero's Mural ,101-123 N Duke St,Durham,"(Durham County, NC)",35.99959,-78.908178,Gym
Duke Arts Annex ,404 Gattis St,Durham,"(Durham County, NC)",35.999786,-78.91881,Gym
Steel Horse ,501-505 Rigsbee Ave,Durham,"(Durham County, NC)",36.000091,-78.900039,Gym
Sarah P. Duke Gardens South Lawn ,Flowers Dr,Durham,"(Durham County, NC)",36.000446,-78.935606,Gym
Downtown Durham,505 Rigsbee Ave,Durham,"(Durham County, NC)",36.00076988,-78.90105665,Nest
Downtown Durham,427 Roney St,Durham,"(Durham County, NC)",36.00100423,-78.90200078,Habitat
Sarah P. Duke Gardens Terrace ,Flowers Dr,Durham,"(Durham County, NC)",36.001354,-78.935121,Gym
Episcopal Center ,505 Alexander Ave,Durham,"(Durham County, NC)",36.001619,-78.926696,Gym
Vote For Santo Pedro ,1113 W Main St,Durham,"(Durham County, NC)",36.00171,-78.912184,Gym
Sarah P. Duke Gardens,426 Anderson St,Durham,"(Durham County, NC)",36.00177243,-78.93128815,Nest
Sarah P. Duke Gardens Roney Fountain ,426 Anderson St,Durham,"(Durham County, NC)",36.001796,-78.93351,Gym
The Iris Fountain at the Sarah P. Duke Gardens ,420 Anderson St,Durham,"(Durham County, NC)",36.001952,-78.931548,Gym
Trinity Park ,1200-1298 US-70 BUS,Durham,"(Durham County, NC)",36.002244,-78.912621,Gym
Masonic Lodge Of High Point ,3200-3298 Winston Ct,High Point,"(Guilford County, NC)",36.002726,-80.036908,Gym
Bamboo Star at Fullsteam Brewery ,726 Rigsbee Ave,Durham,"(Durham County, NC)",36.003153,-78.899822,Gym
Blue Flames Mural ,721 Rigsbee Ave,Durham,"(Durham County, NC)",36.003304,-78.900583,Gym
Stone Bros and Byrd ,512 W Geer St,Durham,"(Durham County, NC)",36.003828,-78.902696,Gym
Mapscape ,Bill Faver Lakeshore Trail,Jamestown,"(Guilford County, NC)",36.004236,-79.953723,Gym
Trinity Ave Presbyterian Church ,927-999 W Trinity Ave,Durham,"(Durham County, NC)",36.005375,-78.907835,Gym
Duke East Campus,1312 Campus Dr,Durham,"(Durham County, NC)",36.00546547,-78.91437382,Habitat
Grace Lighthouse Baptist Church ,1301-1399 US-501 BUS,Durham,"(Durham County, NC)",36.005497,-78.892616,Gym
Blue Light Diner Sam's Quick Shop ,1605 Erwin Rd,Durham,"(Durham County, NC)",36.005524,-78.922673,Gym
America Legion ,406-488 E Trinity Ave,Durham,"(Durham County, NC)",36.006411,-78.888332,Gym
Duke East Campus,14 Epworth Dorm Ln,Durham,"(Durham County, NC)",36.00673045,-78.91471446,Habitat
Wilson ,1320 Campus Dr,Durham,"(Durham County, NC)",36.006986,-78.914282,Gym
Brodie Recreation Center ,20 Brodie Gym Dr,Durham,"(Durham County, NC)",36.007329,-78.917121,Gym
Blacknall Memorial Presbyterian Church ,1902 Perry St,Durham,"(Durham County, NC)",36.007687,-78.921188,Gym
The Korean-American Presbyterian Church Of Greater Greensboro ,3517 Johnson St,High Point,"(Guilford County, NC)",36.007771,-80.010233,Gym
Tanglewood Park,4061 Clemmons Rd.,Clemmons,"(Forsyth County, NC)",36.0093082,-80.4149221,Nest
Tanglewood Park,4061 Clemmons Rd.,Clemmons,"(Forsyth County, NC)",36.0093082,-80.4149221,Nest
Oak Hollow Family Campground ,3401 N Centennial St,High Point,"(Guilford County, NC)",36.009547,-80.004331,Gym
Durham Cycles Flying Bike ,756 9th St,Durham,"(Durham County, NC)",36.009645,-78.921958,Gym
Festival Park ,1835 Eastchester Dr,High Point,"(Guilford County, NC)",36.009651,-79.989367,Gym
God's Holy Tabernacle ,601 W Markham Ave,Durham,"(Durham County, NC)",36.009784,-78.89988,Gym
Beth El Synagogue Center ,1004 Watts St,Durham,"(Durham County, NC)",36.010175,-78.910886,Gym
Grace Lutheran Church ,1101-1199 Green St,Durham,"(Durham County, NC)",36.011299,-78.911982,Gym
Jamestown Park ,7159-7181 E Fork Rd,High Point,"(Guilford County, NC)",36.012829,-79.948136,Gym
Oak Hollow Lake North Overlook ,1875 Eastchester Dr,High Point,"(Guilford County, NC)",36.0132,-79.9839,Gym
Johnson Street Park ,3828 Johnson St,High Point,"(Guilford County, NC)",36.0172,-80.0141,Gym
The Florence Armory ,7211 E Fork Rd,High Point,"(Guilford County, NC)",36.0209,-79.957641,Gym
Northgate Park,2500 Acadia St,Durham,"(Durham County, NC)",36.02277642,-78.89642715,Habitat
Premier Center Fountain ,2429 Penny Rd,High Point,"(Guilford County, NC)",36.02364,-79.9671,Gym
Northgate Dog Park,Ellerbee Creek Trail,Durham,"(Durham County, NC)",36.02379383,-78.89917642,Habitat
Tears for Fears ,3802 Samet Dr,High Point,"(Guilford County, NC)",36.0248,-79.969158,Gym
Hope Church ,3793 Samet Dr,High Point,"(Guilford County, NC)",36.025191,-79.970211,Gym
Deep River Picnic Shelter ,5300 W Wendover Ave,High Point,"(Guilford County, NC)",36.0308,-79.9661,Gym
Community Bible Church ,4125 Johnson St,High Point,"(Guilford County, NC)",36.0318,-80.0196,Gym
Hobby Park,2301 W Clemmonsville Rd,Winston-Salem,"(Forsyth County, NC)",36.03223411,-80.30237675,Habitat
Covenant Church United Methodist ,1526 Skeet Club Rd,High Point,"(Guilford County, NC)",36.0372,-79.9806,Gym
Deep River Park Picnic Shelter ,1525 Skeet Club Rd,High Point,"(Guilford County, NC)",36.0383,-79.9805,Gym
Deep River Recreation Center,Skeet Club Rd,High Point,"(Guilford County, NC)",36.0388226,-79.9801152,Nest
Deep River Recreation Center,1525 Skeet Club Rd,High Point,"(Guilford County, NC)",36.03914011,-79.98001814,Nest
Mendenhall Crane Sculpture ,4006 Mendenhall Oaks Pkwy,High Point,"(Guilford County, NC)",36.0438,-79.9617,Gym
Union Cross Park,1941 Union Cross Rd,Winston-Salem,"(Forsyth County, NC)",36.04460549,-80.13483524,Habitat
ACC Hall of Champions ,2073-2139 W Gate City Blvd,Greensboro,"(Guilford County, NC)",36.058344,-79.827341,Gym
Eno River State Park,4301-4309 Old Cole Mill Rd,Durham,"(Durham County, NC)",36.0607695,-78.98075581,Habitat
Salvation Army ,819-821 S Aycock St,Greensboro,"(Guilford County, NC)",36.060897,-79.815438,Gym
Hope Chapel ,1825 Spring Garden St,Greensboro,"(Guilford County, NC)",36.063021,-79.822868,Gym
UNCG Watertower ,UNCG water tower,Greensboro,"(Guilford County, NC)",36.063517,-79.814941,Gym
Sunflower Sculpture ,2417 Spring Garden St,Greensboro,"(Guilford County, NC)",36.063877,-79.833423,Gym
First Church Of The Nazarene ,2010 Spring Garden St,Greensboro,"(Guilford County, NC)",36.063985,-79.826858,Gym
Elliot University Center,UNCG Underpass,Greensboro,"(Guilford County, NC)",36.0641042,-79.8103631,Trainer Spot
Brick Masterpiece ,816-898 Oakland Ave,Greensboro,"(Guilford County, NC)",36.064166,-79.808333,Gym
To Be ,1025 Spring Garden St,Greensboro,"(Guilford County, NC)",36.06622,-79.806185,Gym
Weatherspoon Art Museum - The ,1001 Spring Garden St,Greensboro,"(Guilford County, NC)",36.066308,-79.805729,Gym
Belltower ,???,Greensboro,"(Guilford County, NC)",36.066385,-79.808846,Gym
Burlington Outlet Village,2389 Corporation Pkwy,Burlington,"(Alamance County, NC)",36.066642,-79.432876,Nest
Highland Park ,4301 Princeton Ave,Greensboro,"(Guilford County, NC)",36.066656,-79.854096,Gym
UNCG Theatre Sculpture ,406 Tate St,Greensboro,"(Guilford County, NC)",36.067298,-79.805725,Gym
Winged Victory ,???,Greensboro,"(Guilford County, NC)",36.067651,-79.808129,Gym
Downtown Greenway Bridge Art ,509 Downtown Greenway,Greensboro,"(Guilford County, NC)",36.067858,-79.796939,Gym
Charles Duncan McIver ,???,Greensboro,"(Guilford County, NC)",36.068194,-79.808799,Gym
College Park Baptist Church ,500 S Aycock St,Greensboro,"(Guilford County, NC)",36.068293,-79.815307,Gym
Russel We Miss You ,948d Walker Ave,Greensboro,"(Guilford County, NC)",36.068354,-79.805258,Gym
Bolton Park,3210 Silas Creek Pkwy,Winston-Salem,"(Forsyth County, NC)",36.06849254,-80.29383659,Nest
50th Anniversary Clock ,406 Forest St,Greensboro,"(Guilford County, NC)",36.068639,-79.810186,Gym
Emma Key's ,508-598 S Elam Ave,Greensboro,"(Guilford County, NC)",36.06888,-79.828542,Gym
Winter Garden Collection ,2600 W Wendover Ave,Greensboro,"(Guilford County, NC)",36.069485,-79.841803,Gym
Downtown Durham,5152 N Roxboro St,Durham,"(Durham County, NC)",36.06978469,-78.91020298,Nest
The Spartan ,Irwin Belk Recreation Track,Greensboro,"(Guilford County, NC)",36.069813,-79.813867,Gym
Tree Planting Statues ,401-499 Ashland Dr,Greensboro,"(Guilford County, NC)",36.069965,-79.841844,Gym
Greensboro Arboretum,401 Ashland Dr,Greensboro,"(Guilford County, NC)",36.070156,-79.842066,Nest
Greensboro Arboretum,401 Ashland Dr,Greensboro,"(Guilford County, NC)",36.070156,-79.842066,Nest
Stone Works ,401 Ashland Dr,Greensboro,"(Guilford County, NC)",36.070302,-79.841904,Gym
Montego Bay Mural ,4604a W Market St,Greensboro,"(Guilford County, NC)",36.07072,-79.86191,Gym
Our Lady of Mercy Church ,1730 Link Rd,Winston-Salem,"(Forsyth County, NC)",36.070726,-80.260936,Gym
Main Building at Greensboro College ,815 W Market St,Greensboro,"(Guilford County, NC)",36.071235,-79.800294,Gym
Kaplan Family Rose Garden ,W Wendover Ave,Greensboro,"(Guilford County, NC)",36.071473,-79.83768,Gym
Umstead Pines @ Willowhaven Golf & Swim Club,326-344 State Rd 1486,Durham,"(Durham County, NC)",36.07152777,-78.96597147,Habitat
Hart Memorial Wind Chimes ,3299 Starmount Dr,Greensboro,"(Guilford County, NC)",36.071599,-79.83863,Gym
Guilford Courthouse Sculpture ,110 S Greene St,Greensboro,"(Guilford County, NC)",36.071626,-79.791928,Gym
The Freedom Pledge ,100 N Greene St,Greensboro,"(Guilford County, NC)",36.072677,-79.790609,Gym
Greensboro Ymca ,501 W Market St,Greensboro,"(Guilford County, NC)",36.07271,-79.796985,Gym
Greensboro College ,841 W Market St,Greensboro,"(Guilford County, NC)",36.072899,-79.800608,Gym
Washington Park Bulletin Board ,171-199 Park Blvd,Winston-Salem,"(Forsyth County, NC)",36.073174,-80.246589,Gym
UNCG Music Entrance ,100-110 McIver St,Greensboro,"(Guilford County, NC)",36.073214,-79.806849,Gym
UNCG,1350-1354 W Market St,Greensboro,"(Guilford County, NC)",36.073441,-79.810887,Gym
Eno River State Park,6101 Cole Mill Rd,Durham,"(Durham County, NC)",36.07373716,-79.00620233,Habitat
Saint Andrews Episcopal Church ,2105 W Market St,Greensboro,"(Guilford County, NC)",36.073764,-79.819979,Gym
Center City Park,201 N Davie St,Greensboro,"(Guilford County, NC)",36.07383447,-79.78957593,Nest
Center City ,200 N Elm St,Greensboro,"(Guilford County, NC)",36.0739,-79.789736,Gym
First Christian Church ,1900 W Market St,Greensboro,"(Guilford County, NC)",36.074274,-79.818509,Gym
Neon Flame ,1381-1399 NC-150,Winston-Salem,"(Forsyth County, NC)",36.074728,-80.25822,Gym
Washington Park ,135-169 Park Blvd,Winston-Salem,"(Forsyth County, NC)",36.075028,-80.24741,Gym
Washington Park Entrance to Greenway ,Salem Creek Greenway,Winston-Salem,"(Forsyth County, NC)",36.075976,-80.250181,Gym
Sculpture Metaphor ,202 Summit Ave,Greensboro,"(Guilford County, NC)",36.076194,-79.787311,Gym
Sunset Hills Historic Neighborhood ,301-399 Overlook St,Greensboro,"(Guilford County, NC)",36.076266,-79.817586,Gym
Vintage Theatre ,1548 S Main St,Winston-Salem,"(Forsyth County, NC)",36.076353,-80.240745,Gym
Chamber of Commerce Clock ,342 N Elm St,Greensboro,"(Guilford County, NC)",36.076369,-79.789875,Gym
Ace Theatre ,585 Giannini Dr,Winston-Salem,"(Forsyth County, NC)",36.076628,-80.237706,Gym
Washington Park,Salem Creek Greenway,Winston-Salem,"(Forsyth County, NC)",36.07696488,-80.24927974,Habitat
First Pentecostal Holiness Church ,998 Hutton St,Winston-Salem,"(Forsyth County, NC)",36.077517,-80.256457,Gym
Smith Street Diner ,303-315 W Smith St,Greensboro,"(Guilford County, NC)",36.07819,-79.793065,Gym
Lake Daniel Park ,478-498 Mimosa Dr,Greensboro,"(Guilford County, NC)",36.078318,-79.81024,Gym
Ardmore Park ,1021 Melrose St,Winston-Salem,"(Forsyth County, NC)",36.078838,-80.275084,Gym
Christ's Sanctified Holy Church ,4627 Tower Rd,Greensboro,"(Guilford County, NC)",36.079251,-79.867423,Gym
Lake Daniel Greenway Basketball Court ,Lake Daniel Greenway,Greensboro,"(Guilford County, NC)",36.07965,-79.80669,Gym
Lapping Dog Fountain ,705 N Edgeworth St,Greensboro,"(Guilford County, NC)",36.079699,-79.795894,Gym
World Trail Warm Up ,Lake Daniel Greenway,Greensboro,"(Guilford County, NC)",36.079762,-79.814366,Gym
Broad Street Entrance to Salem Creek Greenway ,408 Salem Creek Greenway,Winston-Salem,"(Forsyth County, NC)",36.080205,-80.244448,Gym
Happy Hills Clock Tower ,Mock St,Winston-Salem,"(Forsyth County, NC)",36.080327,-80.237732,Gym
Kirkpatrick Family Plot ,746-798 Battleground Ave,Greensboro,"(Guilford County, NC)",36.080896,-79.796214,Gym
Novant Clock Tower ,390 Salem Ave W,Winston-Salem,"(Forsyth County, NC)",36.081498,-80.242805,Gym
Our Confederate Dead ,900-998 Battleground Ave,Greensboro,"(Guilford County, NC)",36.081513,-79.798168,Gym
Gray Monolith ,701 Wharton St,Greensboro,"(Guilford County, NC)",36.082257,-79.798069,Gym
Fisher Park ,701-799 N Elm St,Greensboro,"(Guilford County, NC)",36.082352,-79.789669,Gym
St. Timothy's Episcopal ,2575 Parkway Dr,Winston-Salem,"(Forsyth County, NC)",36.082415,-80.284042,Gym
Pinwheel Sculpture ,N Lindell Rd,Greensboro,"(Guilford County, NC)",36.082457,-79.827123,Gym
Latham Memorial ,901-999 Wharton St,Greensboro,"(Guilford County, NC)",36.082929,-79.795138,Gym
World Trail Vault Bar ,Lake Daniel Greenway,Greensboro,"(Guilford County, NC)",36.083174,-79.819171,Gym
World Trail Beam Jump ,Lake Daniel Greenway,Greensboro,"(Guilford County, NC)",36.083582,-79.827951,Gym
Former Coca Cola Facility ,832-898 Marshall St SW,Winston-Salem,"(Forsyth County, NC)",36.083634,-80.244043,Gym
Shaw Cross ,901-999 Wharton St,Greensboro,"(Guilford County, NC)",36.083723,-79.795245,Gym
Frank L Horton Museum Center ,1000 S Main St,Winston-Salem,"(Forsyth County, NC)",36.083729,-80.241511,Gym
Miller Park,2552 Westover Dr,Winston-Salem,"(Forsyth County, NC)",36.08420511,-80.28334379,Habitat
World Trail Jump N' Touch ,Lake Daniel Greenway,Greensboro,"(Guilford County, NC)",36.084499,-79.82741,Gym
Shelter Number Two ,Leisure Ln,Winston-Salem,"(Forsyth County, NC)",36.084699,-80.283146,Gym
Burger Wars Robot ,1209 Battleground Ave,Greensboro,"(Guilford County, NC)",36.084813,-79.805636,Gym
US Post Office (Pembroke Road) ,560-610 Pembroke Rd,Greensboro,"(Guilford County, NC)",36.084853,-79.832674,Gym
Ardmore Moravian Church ,2013 Academy St,Winston-Salem,"(Forsyth County, NC)",36.084899,-80.269002,Gym
World Trail Hip Rotation ,Lake Daniel Greenway,Greensboro,"(Guilford County, NC)",36.085003,-79.822504,Gym
Bill Britt Bronco Fields ,801 Cridland Rd,Greensboro,"(Guilford County, NC)",36.085591,-79.796401,Gym
Christ Moravian Church ,501-599 Hunter Ave,Winston-Salem,"(Forsyth County, NC)",36.086183,-80.251537,Gym
Miller Park ,2600-2698 Queen St,Winston-Salem,"(Forsyth County, NC)",36.086308,-80.286147,Gym
Zen Rock Garden ,932 Bank St SW,Winston-Salem,"(Forsyth County, NC)",36.086337,-80.252056,Gym
Miller Park Community Center ,400 Leisure Ln,Winston-Salem,"(Forsyth County, NC)",36.086345,-80.281826,Gym
The Horse Statue ,3338 W Friendly Ave,Greensboro,"(Guilford County, NC)",36.086361,-79.838951,Gym
Doorway to the Past ,10 West St,Winston-Salem,"(Forsyth County, NC)",36.086723,-80.243083,Gym
Fountain at Friendly Shops ,3334 W Friendly Ave,Greensboro,"(Guilford County, NC)",36.086885,-79.838222,Gym
Water Fountain At At Kneaded Energy ,1-99 Bessemer Ct,Greensboro,"(Guilford County, NC)",36.087641,-79.793191,Gym
First Lutheran Church Sanctuary ,3600 W Friendly Ave,Greensboro,"(Guilford County, NC)",36.087714,-79.843676,Gym
Christ Church ,2240-2252 Queen St,Winston-Salem,"(Forsyth County, NC)",36.087958,-80.275975,Gym
Church of Christ ,1082-1098 Hill St,Greensboro,"(Guilford County, NC)",36.088122,-79.799519,Gym
Windsor Clock Tower ,514-526 US-158,Winston-Salem,"(Forsyth County, NC)",36.088472,-80.287457,Gym
Salem Baptist Church ,429 S Broad St,Winston-Salem,"(Forsyth County, NC)",36.0885,-80.249409,Gym
Latham Park Monolith ,Latham Park Greenway,Greensboro,"(Guilford County, NC)",36.088637,-79.794399,Gym
Herbst House ,511 S Main St,Winston-Salem,"(Forsyth County, NC)",36.088708,-80.242243,Gym
Ram Statue ,7 S Martin Luther King Jr Dr,Winston-Salem,"(Forsyth County, NC)",36.089009,-80.226906,Gym
Let Sleeping Lions Lie ,11 E Bank St,Winston-Salem,"(Forsyth County, NC)",36.089074,-80.242209,Gym
Kremer House ,God's Acre,Winston-Salem,"(Forsyth County, NC)",36.089482,-80.24159,Gym
Salem Academy College Entrance ,460-498 E Salem Ave,Winston-Salem,"(Forsyth County, NC)",36.089622,-80.23742,Gym
Highland Presbyterian Church ,2380 Cloverdale Ave NW,Winston-Salem,"(Forsyth County, NC)",36.08965,-80.279356,Gym
Other Voices ,Bank St,Winston-Salem,"(Forsyth County, NC)",36.090263,-80.224781,Gym
Dr Simon Green Atkins ,Bank St,Winston-Salem,"(Forsyth County, NC)",36.090508,-80.225628,Gym
Reflection Fountain ,113-199 E Northwood St,Greensboro,"(Guilford County, NC)",36.090586,-79.787785,Gym
Inspiration ,1990-2064 Beach St,Winston-Salem,"(Forsyth County, NC)",36.090912,-80.269168,Gym
Time Capsule ,300 S Stratford Rd,Winston-Salem,"(Forsyth County, NC)",36.091181,-80.283052,Gym
Simon Green Atkins House ,Price St,Winston-Salem,"(Forsyth County, NC)",36.09132,-80.224731,Gym
African-American West End Area ,205 Peters Creek Pkwy,Winston-Salem,"(Forsyth County, NC)",36.091333,-80.2565,Gym
Hobbs Rd Bog Garden Entrance ,1048-1098 Hobbs Rd,Greensboro,"(Guilford County, NC)",36.091407,-79.840758,Gym
Southern Sun Rise by Melvin Edwards ,498 Bruce St,Winston-Salem,"(Forsyth County, NC)",36.09148,-80.226863,Gym
Giant Clover ,2281 Cloverdale Ave NW,Winston-Salem,"(Forsyth County, NC)",36.091687,-80.275028,Gym
Home Run Statue ,999 Watkins St SW,Winston-Salem,"(Forsyth County, NC)",36.092057,-80.254128,Gym
Westside Chapel Church ,5000 W Friendly Ave,Greensboro,"(Guilford County, NC)",36.092198,-79.87188,Gym
On the Fence Statue ,1105 Hobbs Rd,Greensboro,"(Guilford County, NC)",36.092228,-79.841194,Gym
Southern Group Fountain ,420 High St SW,Winston-Salem,"(Forsyth County, NC)",36.092424,-80.247092,Gym
Patterson Celtic Cross Memorial ,100-298 Cemetery St,Winston-Salem,"(Forsyth County, NC)",36.092441,-80.239937,Gym
Greensboro Botanical Gardens,900 N Holden Rd,Greensboro,"(Guilford County, NC)",36.0925273,-79.84300286,Nest
Shaffer House Waterfall Wishing Pool ,401-499 High St SW,Winston-Salem,"(Forsyth County, NC)",36.09254,-80.2477,Gym
Camp Stokes ,1701-1751 Green Valley Rd,Greensboro,"(Guilford County, NC)",36.092607,-79.814753,Gym
GET MORE FREE ITEMS ,262 S Stratford Rd,Winston-Salem,"(Forsyth County, NC)",36.092627,-80.282312,Gym
Greensboro Botanical Gardens,1107 Hobbs Rd,Greensboro,"(Guilford County, NC)",36.09265477,-79.84257796,Nest
Theotokos Greek Orthodox Church ,806 Westridge Rd,Greensboro,"(Guilford County, NC)",36.092658,-79.868515,Gym
World Trail Balance Bar ,1710 Latham Park Greenway,Greensboro,"(Guilford County, NC)",36.092819,-79.790489,Gym
Caldwell Park ,900 N Holden Rd,Greensboro,"(Guilford County, NC)",36.093001,-79.84299,Gym
Beth Schmidt Park,Elon Park Dr,Elon,"(Alamance County, NC)",36.09343002,-79.52127457,Nest
The Noffsinger Building ,330 Knollwood St,Winston-Salem,"(Forsyth County, NC)",36.09412,-80.288304,Gym
Friendly Avenue Baptist Church ,873-899 Westridge Rd,Greensboro,"(Guilford County, NC)",36.094234,-79.869128,Gym
The Club At Green Valley ,1907 Lendew St,Greensboro,"(Guilford County, NC)",36.094249,-79.819957,Gym
Triple Helix ,200 E 1st St,Winston-Salem,"(Forsyth County, NC)",36.094349,-80.241792,Gym
Midtown Cafe ,159 S Stratford Rd,Winston-Salem,"(Forsyth County, NC)",36.094508,-80.27761,Gym
T. Gilbert Pearson Audubon Area ,Tankersley Dr,Greensboro,"(Guilford County, NC)",36.094565,-79.784766,Gym
Tiles and Tiles of Fruit ,55 Miller St,Winston-Salem,"(Forsyth County, NC)",36.094672,-80.274555,Gym
BB and T Park Fountain ,177-199 1st St W,Winston-Salem,"(Forsyth County, NC)",36.094762,-80.245144,Gym
Wells Fargo Center ,200 Second St NW,Winston-Salem,"(Forsyth County, NC)",36.09604,-80.244148,Gym
Acme Comics ,2152 Lawndale Dr,Greensboro,"(Guilford County, NC)",36.096063,-79.81629,Gym
Classic Pepsi Sign ,912 Burke St,Winston-Salem,"(Forsyth County, NC)",36.096163,-80.256686,Gym
Irving Park ,102 Sunset Dr,Greensboro,"(Guilford County, NC)",36.09646,-79.788533,Gym
McKenna's Water Garden ,923-999 W 4th St,Winston-Salem,"(Forsyth County, NC)",36.096604,-80.257676,Gym
Winston Square Park Fountain ,310 Marshall St N,Winston-Salem,"(Forsyth County, NC)",36.097106,-80.248368,Gym
Robert B. Glenn ,369-399 N Broad St,Winston-Salem,"(Forsyth County, NC)",36.097312,-80.253532,Gym
Foothills Brewing ,638 4th St NW,Winston-Salem,"(Forsyth County, NC)",36.097641,-80.250935,Gym
Runnymede Park ,1806-1836 Runnymede Rd,Winston-Salem,"(Forsyth County, NC)",36.098125,-80.268521,Gym
Winston Tower ,301 North Main Street,Winston-Salem,"(Forsyth County, NC)",36.098228,-80.243569,Gym
Lola: Muse of the Arts District ,116 W 4th St,Winston-Salem,"(Forsyth County, NC)",36.098234,-80.245694,Gym
Hanes Park ,624 W End Blvd,Winston-Salem,"(Forsyth County, NC)",36.098547,-80.262515,Gym
Historic Revolution Cotton Mill ,900 Revolution Mill Dr,Greensboro,"(Guilford County, NC)",36.098607,-79.780249,Gym
Journal Sentinel ,420-498 Marshall St N,Winston-Salem,"(Forsyth County, NC)",36.098856,-80.248118,Gym
R J Tobacco Company Stack ,221-299 4th St E,Winston-Salem,"(Forsyth County, NC)",36.098864,-80.241347,Gym
Saint Paul's Episcopal Church ,520 Summit St,Winston-Salem,"(Forsyth County, NC)",36.099391,-80.257423,Gym
First Baptist Church ,501 W 5th St,Winston-Salem,"(Forsyth County, NC)",36.09959,-80.249567,Gym
Cascade Park ,3701-3853 Cascade Dr,Greensboro,"(Guilford County, NC)",36.100232,-79.848609,Gym
Guilford Park Presbyterian Church ,2110 Fernwood Dr,Greensboro,"(Guilford County, NC)",36.100367,-79.818207,Gym
West End's Little Free Library ,721-799 W 6th St,Winston-Salem,"(Forsyth County, NC)",36.100391,-80.25352,Gym
Tyler White Obrien Art Gallery ,305-307 State St,Greensboro,"(Guilford County, NC)",36.101253,-79.785106,Gym
Sea-Products Wooden Fish Sign ,829 Reynolda Rd,Winston-Salem,"(Forsyth County, NC)",36.10149,-80.261192,Gym
Richard J. Reynolds Memorial Auditorium ,301 Hawthorne Rd NW,Winston-Salem,"(Forsyth County, NC)",36.101786,-80.265081,Gym
Goler Memorial A.M.E. Zion Church ,630-698 Patterson Ave,Winston-Salem,"(Forsyth County, NC)",36.102635,-80.241355,Gym
R J Reynolds Statue ,401-439 Hawthorne Rd NW,Winston-Salem,"(Forsyth County, NC)",36.102775,-80.266611,Gym
St Pius Cross ,2200 N Elm St,Greensboro,"(Guilford County, NC)",36.103436,-79.787495,Gym
The Porch ,840 Mill Works St,Winston-Salem,"(Forsyth County, NC)",36.103733,-80.259301,Gym
Urban Tapestry ,120 W 9th St,Winston-Salem,"(Forsyth County, NC)",36.105008,-80.24571,Gym
Winston Salem Water Tower ,905 Northchester Ln,Winston-Salem,"(Forsyth County, NC)",36.105608,-80.24317,Gym
Warehouse Mural ,1004 Rundell St,Winston-Salem,"(Forsyth County, NC)",36.106195,-80.255114,Gym
Minglewood Fountain ,1601-1611 Buena Vista Rd NW,Winston-Salem,"(Forsyth County, NC)",36.106425,-80.266614,Gym
New Bethel Baptist Church ,1018 Trade St NW,Winston-Salem,"(Forsyth County, NC)",36.107213,-80.246665,Gym
Joe Davis Park,1400 19th St,Greensboro,"(Guilford County, NC)",36.11085815,-79.76847231,Nest
Gateway Common Park ,1300-1398 Oak St,Winston-Salem,"(Forsyth County, NC)",36.11259,-80.24798,Gym
Prayer Garden ,3505 Lawndale Dr,Greensboro,"(Guilford County, NC)",36.114153,-79.82339,Gym
Gilmore Memorial Chapel ,1609 N Liberty St,Winston-Salem,"(Forsyth County, NC)",36.114902,-80.234342,Gym
Mount Pisgah United Methodist Church ,2646 Pisgah Church Rd,Greensboro,"(Guilford County, NC)",36.116882,-79.836641,Gym
Christ Lutheran Church ,3600 Lawndale Dr,Greensboro,"(Guilford County, NC)",36.117098,-79.826966,Gym
Kimberly Park Pool ,620 Burton St NW,Winston-Salem,"(Forsyth County, NC)",36.118749,-80.2527,Gym
Herbie's Bug ,3136 Battleground Ave,Greensboro,"(Guilford County, NC)",36.119186,-79.840317,Gym
Pleasant View Trail,651 Willow Creek Rd,Kernersville,"(Forsyth County, NC)",36.11936493,-80.03248215,Nest
Historic Battle Mural ,3200 Battleground Ave,Greensboro,"(Guilford County, NC)",36.119606,-79.841197,Gym
Westminster Fountain ,3800-3898 Brandywine Dr,Greensboro,"(Guilford County, NC)",36.120036,-79.853391,Gym
Golf Links at Renoylda Manor ,1927-1999 Reynolda Rd,Winston-Salem,"(Forsyth County, NC)",36.120312,-80.279984,Gym
City of Greensboro - County Park,43 Jaycee Park Dr,Greensboro,"(Guilford County, NC)",36.12040492,-79.8348999,Habitat
Metal Art ,750 Marguerite Dr,Winston-Salem,"(Forsyth County, NC)",36.120588,-80.291009,Gym
Country Park Entrance ,3905-3923 Lawndale Dr,Greensboro,"(Guilford County, NC)",36.123438,-79.831316,Gym
Bon-Air Park Picnic Area ,2712-2730 Bon Air Ave NE,Winston-Salem,"(Forsyth County, NC)",36.124084,-80.24318,Gym
Rusty Hollow Earth ,615 Coliseum Dr NW,Winston-Salem,"(Forsyth County, NC)",36.124436,-80.260002,Gym
Dixie Classic Fairgrounds Farmer's Market ,421-465 27th St NW,Winston-Salem,"(Forsyth County, NC)",36.124473,-80.256278,Gym
Reynolda Gardens Tree Gazebo ,Reynolda Driveway,Winston-Salem,"(Forsyth County, NC)",36.125259,-80.282225,Gym
Dog Trot Museum ,401-421 27th St NW,Winston-Salem,"(Forsyth County, NC)",36.125265,-80.253302,Gym
Andrew Tower Memorial ,3110 Forest Lawn Dr,Greensboro,"(Guilford County, NC)",36.125734,-79.842179,Gym
Reynolda House Museum of Ameri ,2250 Reynolda Rd,Winston-Salem,"(Forsyth County, NC)",36.125786,-80.282682,Gym
Fair Grounds Clock Tower ,421-465 27th St NW,Winston-Salem,"(Forsyth County, NC)",36.125903,-80.254928,Gym
Sternbergh Mausoleum ,3110 Forest Lawn Dr,Greensboro,"(Guilford County, NC)",36.126414,-79.841934,Gym
Reynolda Gardens of Wake Fores ,106 Reynolda Village,Winston-Salem,"(Forsyth County, NC)",36.126976,-80.285016,Gym
Odd Fellows Cemetery ,2881 Shorefair Dr NW,Winston-Salem,"(Forsyth County, NC)",36.127269,-80.25077,Gym
Play Turtle Trio ,Calvin Wiley Drive,Greensboro,"(Guilford County, NC)",36.128014,-79.836536,Gym
Reynolda Gardens Waterfall ,Reynolda Walking Trail,Winston-Salem,"(Forsyth County, NC)",36.128728,-80.284149,Gym
Fragmented Attack ,174-198 Greenhurst Dr,Greensboro,"(Guilford County, NC)",36.12907,-79.847357,Gym
Demon Deacon Statue ,Piccolo Lane,Winston-Salem,"(Forsyth County, NC)",36.129858,-80.25556,Gym
Guilford Courthouse National Military Park,3110 Forest Lawn Dr,Greensboro,"(Guilford County, NC)",36.13035348,-79.84408379,Nest
Animal Discovery Dinosaur ,4301 Lawndale Dr,Greensboro,"(Guilford County, NC)",36.130443,-79.834104,Gym
Discovery House Window Mantid ,4301 Lawndale Dr,Greensboro,"(Guilford County, NC)",36.130474,-79.833698,Gym
Battleground Park Turtle ,Calvin Wiley Drive,Greensboro,"(Guilford County, NC)",36.13072,-79.836189,Gym
Wake Forest Biological Monolith ,Gulley Dr,Winston-Salem,"(Forsyth County, NC)",36.130953,-80.279707,Gym
Reynolds Gardens Wake Forest Entrance ,Reynolda Walking Trail,Winston-Salem,"(Forsyth County, NC)",36.130995,-80.281344,Gym
Captain James Morehead ,Guilford Courthouse National,Greensboro,"(Guilford County, NC)",36.131233,-79.846283,Gym
Starbucks ,1834 Wake Forest Rd,Winston-Salem,"(Forsyth County, NC)",36.131921,-80.277997,Gym
Manchester Plaza ,Gulley Dr,Winston-Salem,"(Forsyth County, NC)",36.132348,-80.27621,Gym
Residential Neighborhood,3777-3799 Sawgrass Rd,Greensboro,"(Guilford County, NC)",36.13249381,-79.91722863,Habitat
Legend vs. Reality ,Historic New Garden Rd,Greensboro,"(Guilford County, NC)",36.132979,-79.839712,Gym
Guilford Courthouse National Military Park,Atlantic & Yadkin Greenway,Greensboro,"(Guilford County, NC)",36.13336899,-79.8458004,Habitat
Guilford Courthouse National Military Park,Historic New Garden Rd,Greensboro,"(Guilford County, NC)",36.13343831,-79.84395504,Nest
AON Mirrored Crystals ,1100 Reynolds Blvd,Winston-Salem,"(Forsyth County, NC)",36.133561,-80.259909,Gym
Manchester Athletic Center ,21 Wingate Rd,Winston-Salem,"(Forsyth County, NC)",36.133807,-80.275368,Gym
Shiny Disco Ball ,1170 Reynolds Blvd,Winston-Salem,"(Forsyth County, NC)",36.133847,-80.260374,Gym
Woodland Cemetery North Gate ,202-270 Reynolds Blvd,Winston-Salem,"(Forsyth County, NC)",36.134412,-80.248137,Gym
Little River Regional Park and Natural Area,301 Little River Park Way,Rougemont,"(Durham County, NC)",36.16233543,-78.97080481,Nest
Bur-Mil Park,4100 Battleground Ave,Greensboro,"(Guilford County, NC)",36.16615091,-79.87472534,Nest
Northeast Park,3421 NE Park Dr,Gibsonville,"(Alamance County, NC)",36.16760603,-79.60762024,Nest